{
  "type": "FeatureCollection",
  "generator": "overpass-turbo",
  "copyright": "The data included in this document is from www.openstreetmap.org. The data is made available under ODbL.",
  "timestamp": "2025-10-29T12:26:00Z",
  "features": [
    {
      "type": "Feature",
      "properties": {
        "@id": "node/4412552191",
        "amenity": "drinking_water",
        "name": "Quatron"
      },
      "geometry": {
        "type": "Point",
        "coordinates": [
          107.0606196,
          10.6322944
        ]
      },
      "id": "node/4412552191"
    },
    {
      "type": "Feature",
      "properties": {
        "@id": "node/4412560389",
        "amenity": "drinking_water",
        "name": "Lilama18"
      },
      "geometry": {
        "type": "Point",
        "coordinates": [
          106.556675,
          11.1381185
        ]
      },
      "id": "node/4412560389"
    },
    {
      "type": "Feature",
      "properties": {
        "@id": "node/4470914590",
        "amenity": "drinking_water",
        "name": "COFFEE - TRÀ SỮA - ĂN VẶT MR SÓC",
        "name:vi": "COFFEE - TRÀ SỮA - ĂN VẶT MR SÓC"
      },
      "geometry": {
        "type": "Point",
        "coordinates": [
          107.0837217,
          10.3701876
        ]
      },
      "id": "node/4470914590"
    },
    {
      "type": "Feature",
      "properties": {
        "@id": "node/4763585321",
        "amenity": "drinking_water",
        "name": "Bình Bốc",
        "name:vi": "Bình Bốc"
      },
      "geometry": {
        "type": "Point",
        "coordinates": [
          107.5440193,
          10.563467
        ]
      },
      "id": "node/4763585321"
    },
    {
      "type": "Feature",
      "properties": {
        "@id": "node/4765839721",
        "amenity": "drinking_water",
        "designation": "nơi lấy nước"
      },
      "geometry": {
        "type": "Point",
        "coordinates": [
          106.8086023,
          10.8786896
        ]
      },
      "id": "node/4765839721"
    },
    {
      "type": "Feature",
      "properties": {
        "@id": "node/4772131621",
        "amenity": "drinking_water",
        "name": "Long Thành",
        "name:vi": "Long Thành"
      },
      "geometry": {
        "type": "Point",
        "coordinates": [
          107.1731822,
          10.494623
        ]
      },
      "id": "node/4772131621"
    },
    {
      "type": "Feature",
      "properties": {
        "@id": "node/4776039021",
        "amenity": "drinking_water",
        "name": "Chị Hoa",
        "name:vi": "Chị Hoa"
      },
      "geometry": {
        "type": "Point",
        "coordinates": [
          107.1966191,
          10.4064567
        ]
      },
      "id": "node/4776039021"
    },
    {
      "type": "Feature",
      "properties": {
        "@id": "node/4792678722",
        "amenity": "drinking_water",
        "name": "Thuỷ Tiên",
        "name:vi": "Thuỷ Tiên"
      },
      "geometry": {
        "type": "Point",
        "coordinates": [
          107.2192091,
          10.4143294
        ]
      },
      "id": "node/4792678722"
    },
    {
      "type": "Feature",
      "properties": {
        "@id": "node/4946755221",
        "amenity": "drinking_water"
      },
      "geometry": {
        "type": "Point",
        "coordinates": [
          106.6271194,
          10.8673448
        ]
      },
      "id": "node/4946755221"
    },
    {
      "type": "Feature",
      "properties": {
        "@id": "node/4946755321",
        "amenity": "drinking_water"
      },
      "geometry": {
        "type": "Point",
        "coordinates": [
          106.6036376,
          10.873621
        ]
      },
      "id": "node/4946755321"
    },
    {
      "type": "Feature",
      "properties": {
        "@id": "node/4950077421",
        "amenity": "drinking_water",
        "name": "BoBaPop",
        "name:vi": "BoBaPop"
      },
      "geometry": {
        "type": "Point",
        "coordinates": [
          107.178882,
          10.4928098
        ]
      },
      "id": "node/4950077421"
    },
    {
      "type": "Feature",
      "properties": {
        "@id": "node/5595939518",
        "amenity": "drinking_water"
      },
      "geometry": {
        "type": "Point",
        "coordinates": [
          107.0730795,
          10.3473129
        ]
      },
      "id": "node/5595939518"
    },
    {
      "type": "Feature",
      "properties": {
        "@id": "node/6315390486",
        "amenity": "drinking_water"
      },
      "geometry": {
        "type": "Point",
        "coordinates": [
          106.6713493,
          10.7858191
        ]
      },
      "id": "node/6315390486"
    },
    {
      "type": "Feature",
      "properties": {
        "@id": "node/10236126941",
        "amenity": "drinking_water"
      },
      "geometry": {
        "type": "Point",
        "coordinates": [
          106.8436182,
          10.841035
        ]
      },
      "id": "node/10236126941"
    },
    {
      "type": "Feature",
      "properties": {
        "@id": "node/10236126942",
        "amenity": "drinking_water"
      },
      "geometry": {
        "type": "Point",
        "coordinates": [
          106.8437239,
          10.8410638
        ]
      },
      "id": "node/10236126942"
    },
    {
      "type": "Feature",
      "properties": {
        "@id": "node/10236126943",
        "amenity": "drinking_water"
      },
      "geometry": {
        "type": "Point",
        "coordinates": [
          106.8438219,
          10.8411075
        ]
      },
      "id": "node/10236126943"
    },
    {
      "type": "Feature",
      "properties": {
        "@id": "node/10245082954",
        "amenity": "drinking_water"
      },
      "geometry": {
        "type": "Point",
        "coordinates": [
          106.8443319,
          10.8411822
        ]
      },
      "id": "node/10245082954"
    },
    {
      "type": "Feature",
      "properties": {
        "@id": "node/10245082955",
        "amenity": "drinking_water"
      },
      "geometry": {
        "type": "Point",
        "coordinates": [
          106.844442,
          10.8412101
        ]
      },
      "id": "node/10245082955"
    },
    {
      "type": "Feature",
      "properties": {
        "@id": "node/10245082956",
        "amenity": "drinking_water"
      },
      "geometry": {
        "type": "Point",
        "coordinates": [
          106.8445461,
          10.8412685
        ]
      },
      "id": "node/10245082956"
    },
    {
      "type": "Feature",
      "properties": {
        "@id": "node/10245082957",
        "amenity": "drinking_water"
      },
      "geometry": {
        "type": "Point",
        "coordinates": [
          106.8446333,
          10.8413402
        ]
      },
      "id": "node/10245082957"
    },
    {
      "type": "Feature",
      "properties": {
        "@id": "node/10245082958",
        "amenity": "drinking_water"
      },
      "geometry": {
        "type": "Point",
        "coordinates": [
          106.8447063,
          10.8414079
        ]
      },
      "id": "node/10245082958"
    },
    {
      "type": "Feature",
      "properties": {
        "@id": "node/10245082959",
        "amenity": "drinking_water"
      },
      "geometry": {
        "type": "Point",
        "coordinates": [
          106.8447759,
          10.8414656
        ]
      },
      "id": "node/10245082959"
    },
    {
      "type": "Feature",
      "properties": {
        "@id": "node/10245082960",
        "amenity": "drinking_water"
      },
      "geometry": {
        "type": "Point",
        "coordinates": [
          106.8448651,
          10.8415048
        ]
      },
      "id": "node/10245082960"
    },
    {
      "type": "Feature",
      "properties": {
        "@id": "node/10245082961",
        "amenity": "drinking_water"
      },
      "geometry": {
        "type": "Point",
        "coordinates": [
          106.844957,
          10.8415393
        ]
      },
      "id": "node/10245082961"
    },
    {
      "type": "Feature",
      "properties": {
        "@id": "node/10245082962",
        "amenity": "drinking_water"
      },
      "geometry": {
        "type": "Point",
        "coordinates": [
          106.8450537,
          10.8415473
        ]
      },
      "id": "node/10245082962"
    },
    {
      "type": "Feature",
      "properties": {
        "@id": "node/11361823669",
        "amenity": "drinking_water",
        "name": "Lọc Nước, Máy Điện Giải Ion Kiềm CHANSON (Thanh An Water)"
      },
      "geometry": {
        "type": "Point",
        "coordinates": [
          106.7323059,
          10.7876752
        ]
      },
      "id": "node/11361823669"
    },
    {
      "type": "Feature",
      "properties": {
        "@id": "node/11755787569",
        "amenity": "drinking_water"
      },
      "geometry": {
        "type": "Point",
        "coordinates": [
          106.692714,
          10.7739801
        ]
      },
      "id": "node/11755787569"
    },
    {
      "type": "Feature",
      "properties": {
        "@id": "node/11839222962",
        "amenity": "drinking_water",
        "level": "0",
        "operator": "VietJetAir ground floor"
      },
      "geometry": {
        "type": "Point",
        "coordinates": [
          106.6618998,
          10.8156475
        ]
      },
      "id": "node/11839222962"
    },
    {
      "type": "Feature",
      "properties": {
        "@id": "node/11914904291",
        "access": "yes",
        "amenity": "drinking_water",
        "bottle": "yes",
        "covered": "yes",
        "fee": "no",
        "indoor": "yes",
        "lit": "yes",
        "wheelchair": "yes"
      },
      "geometry": {
        "type": "Point",
        "coordinates": [
          106.6661849,
          10.8179818
        ]
      },
      "id": "node/11914904291"
    },
    {
      "type": "Feature",
      "properties": {
        "@id": "node/11919749584",
        "amenity": "drinking_water",
        "fee": "no"
      },
      "geometry": {
        "type": "Point",
        "coordinates": [
          106.7045374,
          10.7731061
        ]
      },
      "id": "node/11919749584"
    },
    {
      "type": "Feature",
      "properties": {
        "@id": "node/12550863172",
        "amenity": "drinking_water",
        "fountain": "bubbler"
      },
      "geometry": {
        "type": "Point",
        "coordinates": [
          106.613846,
          8.6863148
        ]
      },
      "id": "node/12550863172"
    },
    {
      "type": "Feature",
      "properties": {
        "@id": "node/12783447650",
        "amenity": "drinking_water",
        "fee": "no",
        "fountain": "bottle_refill"
      },
      "geometry": {
        "type": "Point",
        "coordinates": [
          106.682674,
          10.7599637
        ]
      },
      "id": "node/12783447650"
    },
    {
      "type": "Feature",
      "properties": {
        "@id": "node/12783447651",
        "amenity": "drinking_water",
        "fee": "no",
        "fountain": "bottle_refill"
      },
      "geometry": {
        "type": "Point",
        "coordinates": [
          106.6819095,
          10.7590687
        ]
      },
      "id": "node/12783447651"
    }
  ]
}