{
  "type": "FeatureCollection",
  "generator": "overpass-turbo",
  "copyright": "The data included in this document is from www.openstreetmap.org. The data is made available under ODbL.",
  "timestamp": "2025-10-29T12:18:55Z",
  "features": [
    {
      "type": "Feature",
      "properties": {
        "@id": "way/793095293",
        "leisure": "playground",
        "name": "Khu trò chơi thiếu nhi số 9"
      },
      "geometry": {
        "type": "Polygon",
        "coordinates": [
          [
            [
              107.1977717,
              10.4150362
            ],
            [
              107.1977046,
              10.4145917
            ],
            [
              107.1978374,
              10.4145706
            ],
            [
              107.1979031,
              10.4149913
            ],
            [
              107.1977717,
              10.4150362
            ]
          ]
        ]
      },
      "id": "way/793095293"
    },
    {
      "type": "Feature",
      "properties": {
        "@id": "way/253624580",
        "leisure": "playground"
      },
      "geometry": {
        "type": "Polygon",
        "coordinates": [
          [
            [
              107.1694001,
              10.4979434
            ],
            [
              107.1693616,
              10.4978388
            ],
            [
              107.1695419,
              10.4977747
            ],
            [
              107.1695804,
              10.4978794
            ],
            [
              107.1694001,
              10.4979434
            ]
          ]
        ]
      },
      "id": "way/253624580"
    },
    {
      "type": "Feature",
      "properties": {
        "@id": "way/786548118",
        "building": "yes",
        "leisure": "playground",
        "name": "Kidz City"
      },
      "geometry": {
        "type": "Polygon",
        "coordinates": [
          [
            [
              107.1730353,
              10.4961993
            ],
            [
              107.1730023,
              10.4960038
            ],
            [
              107.1731702,
              10.4959764
            ],
            [
              107.1731801,
              10.4960355
            ],
            [
              107.1732744,
              10.4960201
            ],
            [
              107.1732974,
              10.4961566
            ],
            [
              107.1730353,
              10.4961993
            ]
          ]
        ]
      },
      "id": "way/786548118"
    },
    {
      "type": "Feature",
      "properties": {
        "@id": "way/1337857600",
        "leisure": "playground",
        "name": "Khu vui chơi Bàu Thành"
      },
      "geometry": {
        "type": "Polygon",
        "coordinates": [
          [
            [
              107.2266178,
              10.4871826
            ],
            [
              107.2262953,
              10.4869671
            ],
            [
              107.2265156,
              10.4866767
            ],
            [
              107.2268387,
              10.4869185
            ],
            [
              107.2266178,
              10.4871826
            ]
          ]
        ]
      },
      "id": "way/1337857600"
    },
    {
      "type": "Feature",
      "properties": {
        "@id": "way/1274528552",
        "leisure": "playground"
      },
      "geometry": {
        "type": "Polygon",
        "coordinates": [
          [
            [
              106.5804695,
              10.6774592
            ],
            [
              106.5805151,
              10.677364
            ],
            [
              106.5805839,
              10.6773961
            ],
            [
              106.5805466,
              10.6774902
            ],
            [
              106.5804695,
              10.6774592
            ]
          ]
        ]
      },
      "id": "way/1274528552"
    },
    {
      "type": "Feature",
      "properties": {
        "@id": "way/1158354763",
        "leisure": "playground"
      },
      "geometry": {
        "type": "Polygon",
        "coordinates": [
          [
            [
              106.7078822,
              10.7119867
            ],
            [
              106.7078657,
              10.7120084
            ],
            [
              106.7078431,
              10.7120237
            ],
            [
              106.7078166,
              10.7120312
            ],
            [
              106.7077881,
              10.7120297
            ],
            [
              106.7077617,
              10.7120191
            ],
            [
              106.7077403,
              10.7120004
            ],
            [
              106.7077265,
              10.7119759
            ],
            [
              106.7077216,
              10.7119483
            ],
            [
              106.7077264,
              10.7119206
            ],
            [
              106.7077402,
              10.711896
            ],
            [
              106.7077615,
              10.7118774
            ],
            [
              106.7077879,
              10.7118666
            ],
            [
              106.7078153,
              10.711865
            ],
            [
              106.7078419,
              10.711872
            ],
            [
              106.7078648,
              10.711887
            ],
            [
              106.7078816,
              10.7119085
            ],
            [
              106.7078906,
              10.711934
            ],
            [
              106.7078908,
              10.711961
            ],
            [
              106.7078822,
              10.7119867
            ]
          ]
        ]
      },
      "id": "way/1158354763"
    },
    {
      "type": "Feature",
      "properties": {
        "@id": "way/492889019",
        "leisure": "playground"
      },
      "geometry": {
        "type": "Polygon",
        "coordinates": [
          [
            [
              106.7082645,
              10.7108527
            ],
            [
              106.7084209,
              10.7106279
            ],
            [
              106.7085155,
              10.710504
            ],
            [
              106.7084665,
              10.7107415
            ],
            [
              106.7083719,
              10.7109055
            ],
            [
              106.7082645,
              10.7108527
            ]
          ]
        ]
      },
      "id": "way/492889019"
    },
    {
      "type": "Feature",
      "properties": {
        "@id": "way/1127570571",
        "barrier": "wall",
        "height": "0.3",
        "leisure": "playground"
      },
      "geometry": {
        "type": "Polygon",
        "coordinates": [
          [
            [
              106.5822795,
              10.7494518
            ],
            [
              106.5822618,
              10.7494126
            ],
            [
              106.5823817,
              10.7492732
            ],
            [
              106.5824104,
              10.7492831
            ],
            [
              106.5824393,
              10.749297
            ],
            [
              106.5824631,
              10.7493139
            ],
            [
              106.5824792,
              10.7493285
            ],
            [
              106.5822795,
              10.7494518
            ]
          ]
        ]
      },
      "id": "way/1127570571"
    },
    {
      "type": "Feature",
      "properties": {
        "@id": "way/1127570582",
        "leisure": "playground"
      },
      "geometry": {
        "type": "Polygon",
        "coordinates": [
          [
            [
              106.5820656,
              10.7493258
            ],
            [
              106.582074,
              10.7493349
            ],
            [
              106.5820843,
              10.7493257
            ],
            [
              106.5820758,
              10.7493166
            ],
            [
              106.5820977,
              10.7492978
            ],
            [
              106.5821238,
              10.7492804
            ],
            [
              106.5821299,
              10.7492912
            ],
            [
              106.582142,
              10.7492845
            ],
            [
              106.5821359,
              10.7492738
            ],
            [
              106.582165,
              10.7492602
            ],
            [
              106.5821929,
              10.7492498
            ],
            [
              106.5821966,
              10.7492616
            ],
            [
              106.5822099,
              10.7492576
            ],
            [
              106.5822062,
              10.7492458
            ],
            [
              106.58224,
              10.7492389
            ],
            [
              106.5822666,
              10.7492364
            ],
            [
              106.5822666,
              10.7492487
            ],
            [
              106.5822805,
              10.7492487
            ],
            [
              106.5822805,
              10.7492364
            ],
            [
              106.5823017,
              10.7492381
            ],
            [
              106.5823258,
              10.7492428
            ],
            [
              106.5823293,
              10.7492473
            ],
            [
              106.5823287,
              10.7492526
            ],
            [
              106.5822936,
              10.7492949
            ],
            [
              106.5822826,
              10.7492864
            ],
            [
              106.582274,
              10.7492972
            ],
            [
              106.5822848,
              10.7493055
            ],
            [
              106.5822505,
              10.7493469
            ],
            [
              106.5822411,
              10.7493392
            ],
            [
              106.5822322,
              10.7493497
            ],
            [
              106.5822417,
              10.7493575
            ],
            [
              106.5822207,
              10.7493827
            ],
            [
              106.5822062,
              10.7493735
            ],
            [
              106.5821889,
              10.7493655
            ],
            [
              106.5821941,
              10.7493542
            ],
            [
              106.5821814,
              10.7493486
            ],
            [
              106.5821763,
              10.7493598
            ],
            [
              106.5821522,
              10.7493506
            ],
            [
              106.5821321,
              10.7493464
            ],
            [
              106.5821334,
              10.7493341
            ],
            [
              106.5821195,
              10.7493327
            ],
            [
              106.5821182,
              10.749345
            ],
            [
              106.5820985,
              10.7493459
            ],
            [
              106.5820755,
              10.7493501
            ],
            [
              106.5820545,
              10.7493598
            ],
            [
              106.5820451,
              10.7493478
            ],
            [
              106.5820656,
              10.7493258
            ]
          ]
        ]
      },
      "id": "way/1127570582"
    },
    {
      "type": "Feature",
      "properties": {
        "@id": "way/1221777040",
        "leisure": "playground"
      },
      "geometry": {
        "type": "Polygon",
        "coordinates": [
          [
            [
              106.6396922,
              10.7141486
            ],
            [
              106.6397482,
              10.7140715
            ],
            [
              106.6398244,
              10.7141252
            ],
            [
              106.6396983,
              10.7142978
            ],
            [
              106.6396221,
              10.7142441
            ],
            [
              106.639676,
              10.7141706
            ],
            [
              106.6396875,
              10.7141953
            ],
            [
              106.6397135,
              10.7141983
            ],
            [
              106.6397302,
              10.7141785
            ],
            [
              106.6397204,
              10.7141522
            ],
            [
              106.6396922,
              10.7141486
            ]
          ]
        ]
      },
      "id": "way/1221777040"
    },
    {
      "type": "Feature",
      "properties": {
        "@id": "way/1238805847",
        "leisure": "playground"
      },
      "geometry": {
        "type": "Polygon",
        "coordinates": [
          [
            [
              106.6078835,
              10.8064903
            ],
            [
              106.6078139,
              10.8063882
            ],
            [
              106.6079906,
              10.8062719
            ],
            [
              106.6080283,
              10.8063271
            ],
            [
              106.6079776,
              10.8064283
            ],
            [
              106.6078835,
              10.8064903
            ]
          ]
        ]
      },
      "id": "way/1238805847"
    },
    {
      "type": "Feature",
      "properties": {
        "@id": "way/1238805848",
        "leisure": "playground"
      },
      "geometry": {
        "type": "Polygon",
        "coordinates": [
          [
            [
              106.6076913,
              10.8062535
            ],
            [
              106.6076046,
              10.806127
            ],
            [
              106.6077538,
              10.8060283
            ],
            [
              106.6078296,
              10.8060174
            ],
            [
              106.6078978,
              10.8061168
            ],
            [
              106.6078395,
              10.8061554
            ],
            [
              106.6076913,
              10.8062535
            ]
          ]
        ]
      },
      "id": "way/1238805848"
    },
    {
      "type": "Feature",
      "properties": {
        "@id": "way/1223444706",
        "access": "private",
        "leisure": "playground",
        "surface": "artificial_turf"
      },
      "geometry": {
        "type": "Polygon",
        "coordinates": [
          [
            [
              106.6428019,
              10.7164259
            ],
            [
              106.642843,
              10.7163516
            ],
            [
              106.6429501,
              10.7164285
            ],
            [
              106.6429553,
              10.7164598
            ],
            [
              106.6428805,
              10.7166015
            ],
            [
              106.6428296,
              10.7165733
            ],
            [
              106.642861,
              10.7165139
            ],
            [
              106.6428545,
              10.7164556
            ],
            [
              106.6428019,
              10.7164259
            ]
          ]
        ]
      },
      "id": "way/1223444706"
    },
    {
      "type": "Feature",
      "properties": {
        "@id": "way/1223444709",
        "access": "private",
        "leisure": "playground",
        "surface": "artificial_turf"
      },
      "geometry": {
        "type": "Polygon",
        "coordinates": [
          [
            [
              106.641845,
              10.7163956
            ],
            [
              106.6420278,
              10.7161461
            ],
            [
              106.6421451,
              10.7162302
            ],
            [
              106.6419648,
              10.7164763
            ],
            [
              106.641845,
              10.7163956
            ]
          ]
        ]
      },
      "id": "way/1223444709"
    },
    {
      "type": "Feature",
      "properties": {
        "@id": "way/1223444710",
        "access": "private",
        "leisure": "playground",
        "surface": "artificial_turf"
      },
      "geometry": {
        "type": "Polygon",
        "coordinates": [
          [
            [
              106.642473,
              10.7166829
            ],
            [
              106.6426085,
              10.716498
            ],
            [
              106.6426735,
              10.7165324
            ],
            [
              106.6425695,
              10.7167295
            ],
            [
              106.642473,
              10.7166829
            ]
          ]
        ]
      },
      "id": "way/1223444710"
    },
    {
      "type": "Feature",
      "properties": {
        "@id": "way/840745157",
        "leisure": "playground"
      },
      "geometry": {
        "type": "Polygon",
        "coordinates": [
          [
            [
              106.6626387,
              10.7166808
            ],
            [
              106.6625981,
              10.716537
            ],
            [
              106.6630371,
              10.7164332
            ],
            [
              106.6630696,
              10.716569
            ],
            [
              106.6626387,
              10.7166808
            ]
          ]
        ]
      },
      "id": "way/840745157"
    },
    {
      "type": "Feature",
      "properties": {
        "@id": "way/840745158",
        "leisure": "playground"
      },
      "geometry": {
        "type": "Polygon",
        "coordinates": [
          [
            [
              106.663347,
              10.7178342
            ],
            [
              106.6633612,
              10.7176395
            ],
            [
              106.6639346,
              10.7173613
            ],
            [
              106.6639275,
              10.7175213
            ],
            [
              106.663347,
              10.7178342
            ]
          ]
        ]
      },
      "id": "way/840745158"
    },
    {
      "type": "Feature",
      "properties": {
        "@id": "way/466839455",
        "leisure": "playground"
      },
      "geometry": {
        "type": "Polygon",
        "coordinates": [
          [
            [
              106.6492138,
              10.748106
            ],
            [
              106.6491941,
              10.7481138
            ],
            [
              106.6491729,
              10.7481147
            ],
            [
              106.6491526,
              10.7481086
            ],
            [
              106.6491359,
              10.7480968
            ],
            [
              106.6491239,
              10.7480804
            ],
            [
              106.6491179,
              10.7480611
            ],
            [
              106.6491186,
              10.7480409
            ],
            [
              106.6491257,
              10.748022
            ],
            [
              106.6491387,
              10.7480063
            ],
            [
              106.649156,
              10.7479955
            ],
            [
              106.649176,
              10.7479907
            ],
            [
              106.6491965,
              10.7479925
            ],
            [
              106.6492153,
              10.7480006
            ],
            [
              106.649231,
              10.7480147
            ],
            [
              106.649241,
              10.7480331
            ],
            [
              106.6492442,
              10.7480537
            ],
            [
              106.6492404,
              10.7480742
            ],
            [
              106.6492299,
              10.7480923
            ],
            [
              106.6492138,
              10.748106
            ]
          ]
        ]
      },
      "id": "way/466839455"
    },
    {
      "type": "Feature",
      "properties": {
        "@id": "way/1158354756",
        "leisure": "playground"
      },
      "geometry": {
        "type": "Polygon",
        "coordinates": [
          [
            [
              106.7071182,
              10.7132055
            ],
            [
              106.7070966,
              10.7131943
            ],
            [
              106.7070742,
              10.7131794
            ],
            [
              106.7070587,
              10.7131596
            ],
            [
              106.7070473,
              10.7131346
            ],
            [
              106.7070465,
              10.7131104
            ],
            [
              106.7070511,
              10.7130899
            ],
            [
              106.7070632,
              10.7130743
            ],
            [
              106.7070811,
              10.7130601
            ],
            [
              106.7071076,
              10.7130538
            ],
            [
              106.7071311,
              10.7130526
            ],
            [
              106.7071573,
              10.7130605
            ],
            [
              106.7071808,
              10.7130735
            ],
            [
              106.707204,
              10.7130918
            ],
            [
              106.7072184,
              10.7131123
            ],
            [
              106.7072222,
              10.7131376
            ],
            [
              106.707221,
              10.7131633
            ],
            [
              106.7072123,
              10.7131838
            ],
            [
              106.7071975,
              10.7131988
            ],
            [
              106.7071747,
              10.7132077
            ],
            [
              106.7071486,
              10.7132103
            ],
            [
              106.7071182,
              10.7132055
            ]
          ]
        ]
      },
      "id": "way/1158354756"
    },
    {
      "type": "Feature",
      "properties": {
        "@id": "way/800644689",
        "leisure": "playground"
      },
      "geometry": {
        "type": "Polygon",
        "coordinates": [
          [
            [
              106.6927294,
              10.7365351
            ],
            [
              106.692726,
              10.7363711
            ],
            [
              106.6928624,
              10.7363692
            ],
            [
              106.6928646,
              10.7365343
            ],
            [
              106.6928614,
              10.7365342
            ],
            [
              106.6927294,
              10.7365351
            ]
          ]
        ]
      },
      "id": "way/800644689"
    },
    {
      "type": "Feature",
      "properties": {
        "@id": "way/1158772676",
        "leisure": "playground"
      },
      "geometry": {
        "type": "Polygon",
        "coordinates": [
          [
            [
              106.7129575,
              10.7307561
            ],
            [
              106.712961,
              10.7306305
            ],
            [
              106.7132106,
              10.7306373
            ],
            [
              106.7132071,
              10.7307629
            ],
            [
              106.7129575,
              10.7307561
            ]
          ]
        ]
      },
      "id": "way/1158772676"
    },
    {
      "type": "Feature",
      "properties": {
        "@id": "way/1158772697",
        "leisure": "playground"
      },
      "geometry": {
        "type": "Polygon",
        "coordinates": [
          [
            [
              106.7133736,
              10.7298397
            ],
            [
              106.7133751,
              10.7297186
            ],
            [
              106.7135294,
              10.7297204
            ],
            [
              106.7135279,
              10.7298416
            ],
            [
              106.7133736,
              10.7298397
            ]
          ]
        ]
      },
      "id": "way/1158772697"
    },
    {
      "type": "Feature",
      "properties": {
        "@id": "way/1157220548",
        "leisure": "playground"
      },
      "geometry": {
        "type": "Polygon",
        "coordinates": [
          [
            [
              106.7170451,
              10.7316165
            ],
            [
              106.7170551,
              10.7316367
            ],
            [
              106.7170581,
              10.7316589
            ],
            [
              106.7170538,
              10.7316809
            ],
            [
              106.7170426,
              10.7317005
            ],
            [
              106.7170245,
              10.7317163
            ],
            [
              106.717002,
              10.7317253
            ],
            [
              106.7169777,
              10.7317262
            ],
            [
              106.7169545,
              10.7317192
            ],
            [
              106.7169351,
              10.7317048
            ],
            [
              106.7169217,
              10.7316849
            ],
            [
              106.7169159,
              10.7316618
            ],
            [
              106.7169184,
              10.731638
            ],
            [
              106.716928,
              10.7316177
            ],
            [
              106.7169436,
              10.7316013
            ],
            [
              106.7169637,
              10.7315907
            ],
            [
              106.7169862,
              10.7315869
            ],
            [
              106.7170088,
              10.7315903
            ],
            [
              106.7170291,
              10.7316005
            ],
            [
              106.7170451,
              10.7316165
            ]
          ]
        ]
      },
      "id": "way/1157220548"
    },
    {
      "type": "Feature",
      "properties": {
        "@id": "way/1419892383",
        "leisure": "playground",
        "name": "Câu lạc bộ Ông Bà Cháu"
      },
      "geometry": {
        "type": "Polygon",
        "coordinates": [
          [
            [
              106.7386667,
              10.7343045
            ],
            [
              106.7386843,
              10.7341099
            ],
            [
              106.7389863,
              10.7341368
            ],
            [
              106.7389669,
              10.7343266
            ],
            [
              106.7386667,
              10.7343045
            ]
          ]
        ]
      },
      "id": "way/1419892383"
    },
    {
      "type": "Feature",
      "properties": {
        "@id": "way/1155363486",
        "leisure": "playground"
      },
      "geometry": {
        "type": "Polygon",
        "coordinates": [
          [
            [
              106.6988302,
              10.7451431
            ],
            [
              106.6993607,
              10.7451426
            ],
            [
              106.6993305,
              10.7452601
            ],
            [
              106.6988641,
              10.7452601
            ],
            [
              106.6988302,
              10.7451431
            ]
          ]
        ]
      },
      "id": "way/1155363486"
    },
    {
      "type": "Feature",
      "properties": {
        "@id": "way/1235185426",
        "leisure": "playground"
      },
      "geometry": {
        "type": "Polygon",
        "coordinates": [
          [
            [
              106.6420945,
              10.7808065
            ],
            [
              106.6420171,
              10.7806479
            ],
            [
              106.6420831,
              10.780579
            ],
            [
              106.6421022,
              10.7805656
            ],
            [
              106.6421253,
              10.7805579
            ],
            [
              106.6421495,
              10.7805564
            ],
            [
              106.6423116,
              10.7805731
            ],
            [
              106.6423333,
              10.7805761
            ],
            [
              106.6423495,
              10.7805842
            ],
            [
              106.6423603,
              10.7805957
            ],
            [
              106.6423964,
              10.7806626
            ],
            [
              106.6420945,
              10.7808065
            ]
          ]
        ]
      },
      "id": "way/1235185426"
    },
    {
      "type": "Feature",
      "properties": {
        "@id": "way/1385768487",
        "indoor": "yes",
        "leisure": "playground",
        "name": "HK BILLIARDS CENTER",
        "opening_hours": "24/7"
      },
      "geometry": {
        "type": "Polygon",
        "coordinates": [
          [
            [
              106.6626613,
              10.7815554
            ],
            [
              106.6627444,
              10.7815851
            ],
            [
              106.6627034,
              10.7816902
            ],
            [
              106.6626182,
              10.7816613
            ],
            [
              106.6626613,
              10.7815554
            ]
          ]
        ]
      },
      "id": "way/1385768487"
    },
    {
      "type": "Feature",
      "properties": {
        "@id": "way/469356298",
        "leisure": "playground"
      },
      "geometry": {
        "type": "Polygon",
        "coordinates": [
          [
            [
              106.6910469,
              10.7748416
            ],
            [
              106.6911629,
              10.7747365
            ],
            [
              106.6913107,
              10.7748938
            ],
            [
              106.6911947,
              10.774999
            ],
            [
              106.6910469,
              10.7748416
            ]
          ]
        ]
      },
      "id": "way/469356298"
    },
    {
      "type": "Feature",
      "properties": {
        "@id": "way/1232967344",
        "access": "yes",
        "leisure": "playground"
      },
      "geometry": {
        "type": "Polygon",
        "coordinates": [
          [
            [
              106.6417092,
              10.7922844
            ],
            [
              106.641494,
              10.7923699
            ],
            [
              106.6414524,
              10.7921571
            ],
            [
              106.641628,
              10.7920873
            ],
            [
              106.6417092,
              10.7922844
            ]
          ]
        ]
      },
      "id": "way/1232967344"
    },
    {
      "type": "Feature",
      "properties": {
        "@id": "way/1153929456",
        "leisure": "playground",
        "surface": "sand"
      },
      "geometry": {
        "type": "Polygon",
        "coordinates": [
          [
            [
              106.6689519,
              10.8100184
            ],
            [
              106.6689775,
              10.8100021
            ],
            [
              106.6690068,
              10.8099911
            ],
            [
              106.6690351,
              10.809987
            ],
            [
              106.6690594,
              10.809997
            ],
            [
              106.6690771,
              10.8100181
            ],
            [
              106.6690868,
              10.8100476
            ],
            [
              106.6690948,
              10.8100937
            ],
            [
              106.6690948,
              10.8101483
            ],
            [
              106.6690853,
              10.810195
            ],
            [
              106.6690685,
              10.8102246
            ],
            [
              106.6690504,
              10.8102378
            ],
            [
              106.6690296,
              10.8102457
            ],
            [
              106.6690089,
              10.8102458
            ],
            [
              106.6689519,
              10.8100184
            ]
          ]
        ]
      },
      "id": "way/1153929456"
    },
    {
      "type": "Feature",
      "properties": {
        "@id": "way/1153484384",
        "leisure": "playground",
        "surface": "artificial_turf"
      },
      "geometry": {
        "type": "Polygon",
        "coordinates": [
          [
            [
              106.6694359,
              10.8116369
            ],
            [
              106.6694568,
              10.8118954
            ],
            [
              106.6694197,
              10.8118984
            ],
            [
              106.6693943,
              10.8118909
            ],
            [
              106.6693795,
              10.8118774
            ],
            [
              106.6693755,
              10.811858
            ],
            [
              106.6693807,
              10.8116634
            ],
            [
              106.6693813,
              10.8116536
            ],
            [
              106.6693845,
              10.8116463
            ],
            [
              106.6693901,
              10.8116431
            ],
            [
              106.6693969,
              10.8116415
            ],
            [
              106.6694359,
              10.8116369
            ]
          ]
        ]
      },
      "id": "way/1153484384"
    },
    {
      "type": "Feature",
      "properties": {
        "@id": "way/1153484387",
        "leisure": "playground",
        "surface": "artificial_turf"
      },
      "geometry": {
        "type": "Polygon",
        "coordinates": [
          [
            [
              106.6692388,
              10.8108639
            ],
            [
              106.6692284,
              10.8107805
            ],
            [
              106.6692924,
              10.8107728
            ],
            [
              106.6693259,
              10.8107803
            ],
            [
              106.6693524,
              10.8107958
            ],
            [
              106.6693646,
              10.8108217
            ],
            [
              106.6693679,
              10.8108484
            ],
            [
              106.6692388,
              10.8108639
            ]
          ]
        ]
      },
      "id": "way/1153484387"
    },
    {
      "type": "Feature",
      "properties": {
        "@id": "way/1080063072",
        "leisure": "playground"
      },
      "geometry": {
        "type": "Polygon",
        "coordinates": [
          [
            [
              106.6737653,
              10.8129375
            ],
            [
              106.6734234,
              10.8125966
            ],
            [
              106.6735127,
              10.8124863
            ],
            [
              106.6736607,
              10.8124863
            ],
            [
              106.6737832,
              10.812534
            ],
            [
              106.6739644,
              10.8127646
            ],
            [
              106.6737653,
              10.8129375
            ]
          ]
        ]
      },
      "id": "way/1080063072"
    },
    {
      "type": "Feature",
      "properties": {
        "@id": "way/1275090310",
        "access": "yes",
        "leisure": "playground"
      },
      "geometry": {
        "type": "Polygon",
        "coordinates": [
          [
            [
              106.6956407,
              10.7701397
            ],
            [
              106.6957262,
              10.7699363
            ],
            [
              106.6957569,
              10.7698632
            ],
            [
              106.6960282,
              10.7699733
            ],
            [
              106.6959982,
              10.7700447
            ],
            [
              106.6959121,
              10.7702497
            ],
            [
              106.6956407,
              10.7701397
            ]
          ]
        ]
      },
      "id": "way/1275090310"
    },
    {
      "type": "Feature",
      "properties": {
        "@id": "way/35113523",
        "access": "yes",
        "leisure": "playground",
        "surface": "sand"
      },
      "geometry": {
        "type": "Polygon",
        "coordinates": [
          [
            [
              106.6935454,
              10.7749298
            ],
            [
              106.6936049,
              10.7748915
            ],
            [
              106.6936262,
              10.7748836
            ],
            [
              106.6936485,
              10.774879
            ],
            [
              106.6936838,
              10.7748788
            ],
            [
              106.6937182,
              10.7748869
            ],
            [
              106.693753,
              10.7749065
            ],
            [
              106.6937839,
              10.7749317
            ],
            [
              106.6938131,
              10.7749662
            ],
            [
              106.6938349,
              10.7750055
            ],
            [
              106.6938912,
              10.7751452
            ],
            [
              106.6938924,
              10.775165
            ],
            [
              106.6938899,
              10.7751847
            ],
            [
              106.6938833,
              10.7752041
            ],
            [
              106.6938731,
              10.7752219
            ],
            [
              106.6938416,
              10.7752505
            ],
            [
              106.6935454,
              10.7749298
            ]
          ]
        ]
      },
      "id": "way/35113523"
    },
    {
      "type": "Feature",
      "properties": {
        "@id": "way/1276342070",
        "leisure": "playground",
        "playground": "splash_pad"
      },
      "geometry": {
        "type": "Polygon",
        "coordinates": [
          [
            [
              106.7058613,
              10.7886767
            ],
            [
              106.7055917,
              10.7883768
            ],
            [
              106.7055847,
              10.7883607
            ],
            [
              106.7055839,
              10.7883432
            ],
            [
              106.7055894,
              10.7883266
            ],
            [
              106.7056004,
              10.7883129
            ],
            [
              106.7056156,
              10.7883038
            ],
            [
              106.7056331,
              10.7883005
            ],
            [
              106.7056507,
              10.7883034
            ],
            [
              106.7056661,
              10.7883122
            ],
            [
              106.705934,
              10.7886096
            ],
            [
              106.7059417,
              10.7886231
            ],
            [
              106.7058761,
              10.7886858
            ],
            [
              106.7058613,
              10.7886767
            ]
          ]
        ]
      },
      "id": "way/1276342070"
    },
    {
      "type": "Feature",
      "properties": {
        "@id": "way/801566256",
        "access": "permissive",
        "leisure": "playground",
        "playground:theme": "adventure"
      },
      "geometry": {
        "type": "Polygon",
        "coordinates": [
          [
            [
              106.7122678,
              10.7866323
            ],
            [
              106.7123026,
              10.7866044
            ],
            [
              106.7124338,
              10.7865592
            ],
            [
              106.7125174,
              10.7867172
            ],
            [
              106.7122678,
              10.7866323
            ]
          ]
        ]
      },
      "id": "way/801566256"
    },
    {
      "type": "Feature",
      "properties": {
        "@id": "way/801529174",
        "access": "permissive",
        "leisure": "playground",
        "playground:theme": "adventure"
      },
      "geometry": {
        "type": "Polygon",
        "coordinates": [
          [
            [
              106.7104542,
              10.7870626
            ],
            [
              106.7107284,
              10.7867932
            ],
            [
              106.7109048,
              10.7867943
            ],
            [
              106.7106059,
              10.7870792
            ],
            [
              106.7104542,
              10.7870626
            ]
          ]
        ]
      },
      "id": "way/801529174"
    },
    {
      "type": "Feature",
      "properties": {
        "@id": "way/889424139",
        "leisure": "playground"
      },
      "geometry": {
        "type": "Polygon",
        "coordinates": [
          [
            [
              106.7237209,
              10.7911446
            ],
            [
              106.7237662,
              10.7911093
            ],
            [
              106.7238246,
              10.7911248
            ],
            [
              106.7239367,
              10.7909825
            ],
            [
              106.7239853,
              10.7910449
            ],
            [
              106.7241039,
              10.7911906
            ],
            [
              106.7243429,
              10.7915862
            ],
            [
              106.7243517,
              10.7916314
            ],
            [
              106.7242548,
              10.7916651
            ],
            [
              106.7241598,
              10.7916847
            ],
            [
              106.7240536,
              10.7914566
            ],
            [
              106.7239945,
              10.7914438
            ],
            [
              106.7237872,
              10.7913032
            ],
            [
              106.7237143,
              10.7912263
            ],
            [
              106.7237209,
              10.7911446
            ]
          ]
        ]
      },
      "id": "way/889424139"
    },
    {
      "type": "Feature",
      "properties": {
        "@id": "way/889445106",
        "leisure": "playground"
      },
      "geometry": {
        "type": "Polygon",
        "coordinates": [
          [
            [
              106.7220038,
              10.7933556
            ],
            [
              106.7220336,
              10.7932425
            ],
            [
              106.7221546,
              10.7933556
            ],
            [
              106.7220038,
              10.7933556
            ]
          ]
        ]
      },
      "id": "way/889445106"
    },
    {
      "type": "Feature",
      "properties": {
        "@id": "way/889453711",
        "leisure": "playground"
      },
      "geometry": {
        "type": "Polygon",
        "coordinates": [
          [
            [
              106.7224437,
              10.7911785
            ],
            [
              106.7225662,
              10.7910738
            ],
            [
              106.7226685,
              10.7910398
            ],
            [
              106.7226872,
              10.7911446
            ],
            [
              106.7225287,
              10.7912323
            ],
            [
              106.7224437,
              10.7911785
            ]
          ]
        ]
      },
      "id": "way/889453711"
    },
    {
      "type": "Feature",
      "properties": {
        "@id": "way/889453712",
        "leisure": "playground"
      },
      "geometry": {
        "type": "Polygon",
        "coordinates": [
          [
            [
              106.7225994,
              10.7924308
            ],
            [
              106.7225834,
              10.7923837
            ],
            [
              106.7226036,
              10.7923425
            ],
            [
              106.7226685,
              10.7923419
            ],
            [
              106.7227349,
              10.7923664
            ],
            [
              106.7228061,
              10.792336
            ],
            [
              106.7228476,
              10.7923573
            ],
            [
              106.7228494,
              10.792408
            ],
            [
              106.722741,
              10.792435
            ],
            [
              106.7226738,
              10.7924287
            ],
            [
              106.7225994,
              10.7924308
            ]
          ]
        ]
      },
      "id": "way/889453712"
    },
    {
      "type": "Feature",
      "properties": {
        "@id": "way/889453717",
        "leisure": "playground"
      },
      "geometry": {
        "type": "Polygon",
        "coordinates": [
          [
            [
              106.7224312,
              10.79291
            ],
            [
              106.7224258,
              10.7928665
            ],
            [
              106.7225035,
              10.792843
            ],
            [
              106.7226142,
              10.7928498
            ],
            [
              106.7226509,
              10.7928738
            ],
            [
              106.7226368,
              10.7929191
            ],
            [
              106.7224312,
              10.79291
            ]
          ]
        ]
      },
      "id": "way/889453717"
    },
    {
      "type": "Feature",
      "properties": {
        "@id": "way/891452094",
        "leisure": "playground"
      },
      "geometry": {
        "type": "Polygon",
        "coordinates": [
          [
            [
              106.7210106,
              10.7909362
            ],
            [
              106.7210894,
              10.790869
            ],
            [
              106.7211549,
              10.790943
            ],
            [
              106.7210761,
              10.7910102
            ],
            [
              106.7210106,
              10.7909362
            ]
          ]
        ]
      },
      "id": "way/891452094"
    },
    {
      "type": "Feature",
      "properties": {
        "@id": "way/891528408",
        "leisure": "playground"
      },
      "geometry": {
        "type": "Polygon",
        "coordinates": [
          [
            [
              106.719613,
              10.7953263
            ],
            [
              106.7194908,
              10.7952429
            ],
            [
              106.7195471,
              10.7951633
            ],
            [
              106.7196693,
              10.7952466
            ],
            [
              106.719613,
              10.7953263
            ]
          ]
        ]
      },
      "id": "way/891528408"
    },
    {
      "type": "Feature",
      "properties": {
        "@id": "way/892596188",
        "leisure": "playground"
      },
      "geometry": {
        "type": "Polygon",
        "coordinates": [
          [
            [
              106.7213634,
              10.795933
            ],
            [
              106.7214374,
              10.7958564
            ],
            [
              106.7214023,
              10.7958182
            ],
            [
              106.7214276,
              10.7957914
            ],
            [
              106.7214899,
              10.7958392
            ],
            [
              106.721488,
              10.7959368
            ],
            [
              106.721416,
              10.7959712
            ],
            [
              106.7213634,
              10.795933
            ]
          ]
        ]
      },
      "id": "way/892596188"
    },
    {
      "type": "Feature",
      "properties": {
        "@id": "way/807423450",
        "leisure": "playground"
      },
      "geometry": {
        "type": "Polygon",
        "coordinates": [
          [
            [
              106.7256085,
              10.7972745
            ],
            [
              106.7256055,
              10.7972096
            ],
            [
              106.725634,
              10.7971152
            ],
            [
              106.725649,
              10.79704
            ],
            [
              106.7255544,
              10.796925
            ],
            [
              106.7255559,
              10.7968246
            ],
            [
              106.725604,
              10.7967391
            ],
            [
              106.7256821,
              10.7967789
            ],
            [
              106.7256821,
              10.7968674
            ],
            [
              106.7257196,
              10.7970031
            ],
            [
              106.7258337,
              10.7970385
            ],
            [
              106.7258938,
              10.7971669
            ],
            [
              106.7257602,
              10.7972967
            ],
            [
              106.7256085,
              10.7972745
            ]
          ]
        ]
      },
      "id": "way/807423450"
    },
    {
      "type": "Feature",
      "properties": {
        "@id": "way/372685306",
        "leisure": "playground"
      },
      "geometry": {
        "type": "Polygon",
        "coordinates": [
          [
            [
              106.7362951,
              10.8106479
            ],
            [
              106.7360404,
              10.8104657
            ],
            [
              106.7365446,
              10.8101179
            ],
            [
              106.7365768,
              10.8101732
            ],
            [
              106.7362951,
              10.8106479
            ]
          ]
        ]
      },
      "id": "way/372685306"
    },
    {
      "type": "Feature",
      "properties": {
        "@id": "way/723048247",
        "leisure": "playground",
        "location": "roof"
      },
      "geometry": {
        "type": "Polygon",
        "coordinates": [
          [
            [
              106.7489308,
              10.8017588
            ],
            [
              106.7488765,
              10.8017485
            ],
            [
              106.7488835,
              10.8017194
            ],
            [
              106.7488671,
              10.8017006
            ],
            [
              106.7488894,
              10.8016764
            ],
            [
              106.7489577,
              10.8016909
            ],
            [
              106.7489482,
              10.8017251
            ],
            [
              106.7489308,
              10.8017588
            ]
          ]
        ]
      },
      "id": "way/723048247"
    },
    {
      "type": "Feature",
      "properties": {
        "@id": "way/724247273",
        "leisure": "playground"
      },
      "geometry": {
        "type": "Polygon",
        "coordinates": [
          [
            [
              106.7487205,
              10.8011898
            ],
            [
              106.7487369,
              10.8010756
            ],
            [
              106.7488012,
              10.801048
            ],
            [
              106.7488517,
              10.8010935
            ],
            [
              106.7488443,
              10.8011898
            ],
            [
              106.7487866,
              10.8012135
            ],
            [
              106.7487205,
              10.8011898
            ]
          ]
        ]
      },
      "id": "way/724247273"
    },
    {
      "type": "Feature",
      "properties": {
        "@id": "way/809018090",
        "leisure": "playground"
      },
      "geometry": {
        "type": "Polygon",
        "coordinates": [
          [
            [
              106.7484938,
              10.8003238
            ],
            [
              106.7485233,
              10.8001935
            ],
            [
              106.7487601,
              10.8002452
            ],
            [
              106.7487306,
              10.8003756
            ],
            [
              106.7484938,
              10.8003238
            ]
          ]
        ]
      },
      "id": "way/809018090"
    },
    {
      "type": "Feature",
      "properties": {
        "@id": "way/345711262",
        "leisure": "playground"
      },
      "geometry": {
        "type": "Polygon",
        "coordinates": [
          [
            [
              106.7493803,
              10.8090155
            ],
            [
              106.7493133,
              10.8089523
            ],
            [
              106.7493803,
              10.8088838
            ],
            [
              106.7494527,
              10.8089444
            ],
            [
              106.7493803,
              10.8090155
            ]
          ]
        ]
      },
      "id": "way/345711262"
    },
    {
      "type": "Feature",
      "properties": {
        "@id": "way/303966854",
        "addr:housenumber": "281",
        "addr:street": "Võ Văn Ngân",
        "leisure": "playground",
        "name": "Nhà Thiếu nhi Quận Thủ Đức"
      },
      "geometry": {
        "type": "Polygon",
        "coordinates": [
          [
            [
              106.7673078,
              10.8522047
            ],
            [
              106.7667532,
              10.8513103
            ],
            [
              106.7663272,
              10.8506747
            ],
            [
              106.7667083,
              10.8506435
            ],
            [
              106.7672273,
              10.850594
            ],
            [
              106.7676577,
              10.8504639
            ],
            [
              106.7676336,
              10.8503736
            ],
            [
              106.7676182,
              10.850266
            ],
            [
              106.7676358,
              10.8501552
            ],
            [
              106.7676982,
              10.850066
            ],
            [
              106.7678372,
              10.8499875
            ],
            [
              106.7678876,
              10.8499928
            ],
            [
              106.7679314,
              10.8500305
            ],
            [
              106.7685717,
              10.8517127
            ],
            [
              106.7673078,
              10.8522047
            ]
          ]
        ]
      },
      "id": "way/303966854"
    },
    {
      "type": "Feature",
      "properties": {
        "@id": "way/303966868",
        "leisure": "playground"
      },
      "geometry": {
        "type": "Polygon",
        "coordinates": [
          [
            [
              106.7657771,
              10.8554929
            ],
            [
              106.7659053,
              10.8553671
            ],
            [
              106.7660651,
              10.8555338
            ],
            [
              106.7659261,
              10.8556585
            ],
            [
              106.7657771,
              10.8554929
            ]
          ]
        ]
      },
      "id": "way/303966868"
    },
    {
      "type": "Feature",
      "properties": {
        "@id": "way/317500860",
        "leisure": "playground"
      },
      "geometry": {
        "type": "Polygon",
        "coordinates": [
          [
            [
              106.767762,
              10.8511852
            ],
            [
              106.7675248,
              10.8505814
            ],
            [
              106.7680079,
              10.8503984
            ],
            [
              106.7682451,
              10.8510022
            ],
            [
              106.767762,
              10.8511852
            ]
          ]
        ]
      },
      "id": "way/317500860"
    },
    {
      "type": "Feature",
      "properties": {
        "@id": "way/1223359288",
        "leisure": "playground"
      },
      "geometry": {
        "type": "Polygon",
        "coordinates": [
          [
            [
              106.8329411,
              10.8383567
            ],
            [
              106.8329475,
              10.8383383
            ],
            [
              106.8329498,
              10.8383388
            ],
            [
              106.832976,
              10.8383442
            ],
            [
              106.8329914,
              10.8383386
            ],
            [
              106.8330006,
              10.8383296
            ],
            [
              106.8330082,
              10.8383158
            ],
            [
              106.8330119,
              10.8383016
            ],
            [
              106.8330105,
              10.8382867
            ],
            [
              106.8330101,
              10.8382828
            ],
            [
              106.8330032,
              10.8382658
            ],
            [
              106.8330001,
              10.8382473
            ],
            [
              106.8330032,
              10.8382284
            ],
            [
              106.8330171,
              10.8382117
            ],
            [
              106.8330325,
              10.8382019
            ],
            [
              106.8330571,
              10.8381966
            ],
            [
              106.8330771,
              10.8382004
            ],
            [
              106.8330945,
              10.8382136
            ],
            [
              106.8331049,
              10.8382367
            ],
            [
              106.8331053,
              10.8382658
            ],
            [
              106.8331066,
              10.8382789
            ],
            [
              106.833111,
              10.8382889
            ],
            [
              106.8331184,
              10.8383014
            ],
            [
              106.8331272,
              10.8383101
            ],
            [
              106.8331353,
              10.8383144
            ],
            [
              106.8331424,
              10.8383212
            ],
            [
              106.8331487,
              10.83833
            ],
            [
              106.8331529,
              10.8383414
            ],
            [
              106.8331549,
              10.8383527
            ],
            [
              106.8331542,
              10.8383663
            ],
            [
              106.8331505,
              10.8383803
            ],
            [
              106.8331466,
              10.8383928
            ],
            [
              106.8331391,
              10.8384036
            ],
            [
              106.833128,
              10.8384141
            ],
            [
              106.8331133,
              10.8384224
            ],
            [
              106.8330987,
              10.8384246
            ],
            [
              106.8330836,
              10.8384228
            ],
            [
              106.8330677,
              10.8384159
            ],
            [
              106.833053,
              10.8384083
            ],
            [
              106.8330399,
              10.8384102
            ],
            [
              106.8330262,
              10.838414
            ],
            [
              106.8330164,
              10.8384187
            ],
            [
              106.8330075,
              10.8384251
            ],
            [
              106.8329969,
              10.8384297
            ],
            [
              106.8329845,
              10.8384304
            ],
            [
              106.8329739,
              10.8384289
            ],
            [
              106.8329617,
              10.8384251
            ],
            [
              106.8329525,
              10.8384167
            ],
            [
              106.8329451,
              10.8384069
            ],
            [
              106.8329405,
              10.838397
            ],
            [
              106.83294,
              10.8383875
            ],
            [
              106.8329411,
              10.8383775
            ],
            [
              106.8329443,
              10.8383664
            ],
            [
              106.8329551,
              10.8383594
            ],
            [
              106.8329411,
              10.8383567
            ]
          ]
        ]
      },
      "id": "way/1223359288"
    },
    {
      "type": "Feature",
      "properties": {
        "@id": "way/1223359289",
        "leisure": "playground"
      },
      "geometry": {
        "type": "Polygon",
        "coordinates": [
          [
            [
              106.833183,
              10.8381907
            ],
            [
              106.8332247,
              10.838076
            ],
            [
              106.833247,
              10.8380165
            ],
            [
              106.8334213,
              10.8380842
            ],
            [
              106.8334192,
              10.8380897
            ],
            [
              106.8334244,
              10.8380914
            ],
            [
              106.8334178,
              10.8381103
            ],
            [
              106.833368,
              10.8381408
            ],
            [
              106.8333039,
              10.8381732
            ],
            [
              106.8332699,
              10.8381867
            ],
            [
              106.8332211,
              10.8381977
            ],
            [
              106.8332074,
              10.8382012
            ],
            [
              106.8331962,
              10.8382017
            ],
            [
              106.833187,
              10.8381992
            ],
            [
              106.833183,
              10.8381907
            ]
          ]
        ]
      },
      "id": "way/1223359289"
    },
    {
      "type": "Feature",
      "properties": {
        "@id": "way/1224023697",
        "leisure": "playground"
      },
      "geometry": {
        "type": "Polygon",
        "coordinates": [
          [
            [
              106.8457992,
              10.8342599
            ],
            [
              106.8457419,
              10.8342778
            ],
            [
              106.8456189,
              10.8343127
            ],
            [
              106.8455823,
              10.8343177
            ],
            [
              106.8455386,
              10.8343177
            ],
            [
              106.8455071,
              10.8343048
            ],
            [
              106.8454776,
              10.8342878
            ],
            [
              106.8454461,
              10.8342638
            ],
            [
              106.8454248,
              10.8342409
            ],
            [
              106.8454024,
              10.8342069
            ],
            [
              106.8453862,
              10.834177
            ],
            [
              106.845375,
              10.83414
            ],
            [
              106.8453506,
              10.8340183
            ],
            [
              106.8453429,
              10.833974
            ],
            [
              106.8454073,
              10.8339216
            ],
            [
              106.8454452,
              10.8339382
            ],
            [
              106.8454768,
              10.8339629
            ],
            [
              106.8455007,
              10.833987
            ],
            [
              106.8455206,
              10.8340277
            ],
            [
              106.8455398,
              10.8340632
            ],
            [
              106.8455638,
              10.8340965
            ],
            [
              106.8455994,
              10.8341177
            ],
            [
              106.8456385,
              10.8341383
            ],
            [
              106.8456846,
              10.8341538
            ],
            [
              106.8457266,
              10.8341693
            ],
            [
              106.8457622,
              10.8341934
            ],
            [
              106.8457821,
              10.8342197
            ],
            [
              106.8457992,
              10.8342599
            ]
          ]
        ]
      },
      "id": "way/1224023697"
    },
    {
      "type": "Feature",
      "properties": {
        "@id": "way/1224026804",
        "leisure": "playground"
      },
      "geometry": {
        "type": "Polygon",
        "coordinates": [
          [
            [
              106.8463095,
              10.8329448
            ],
            [
              106.8463706,
              10.8329492
            ],
            [
              106.8464183,
              10.8329631
            ],
            [
              106.8464555,
              10.8329831
            ],
            [
              106.8464891,
              10.83301
            ],
            [
              106.8465236,
              10.8330422
            ],
            [
              106.8465519,
              10.8330765
            ],
            [
              106.8465659,
              10.8330974
            ],
            [
              106.8465798,
              10.8331192
            ],
            [
              106.8465932,
              10.8331418
            ],
            [
              106.8466045,
              10.8331683
            ],
            [
              106.846613,
              10.8332047
            ],
            [
              106.8465564,
              10.8332047
            ],
            [
              106.8465086,
              10.8331977
            ],
            [
              106.8464644,
              10.8331812
            ],
            [
              106.8464228,
              10.8331577
            ],
            [
              106.8463874,
              10.8331265
            ],
            [
              106.8463582,
              10.8330865
            ],
            [
              106.8463361,
              10.8330439
            ],
            [
              106.8463192,
              10.832997
            ],
            [
              106.8463095,
              10.8329448
            ]
          ]
        ]
      },
      "id": "way/1224026804"
    },
    {
      "type": "Feature",
      "properties": {
        "@id": "way/1223367848",
        "leisure": "playground"
      },
      "geometry": {
        "type": "Polygon",
        "coordinates": [
          [
            [
              106.8436895,
              10.8377469
            ],
            [
              106.8436288,
              10.8377205
            ],
            [
              106.8436381,
              10.8376689
            ],
            [
              106.8436369,
              10.8376242
            ],
            [
              106.8436229,
              10.8375921
            ],
            [
              106.8435891,
              10.837545
            ],
            [
              106.8435704,
              10.8375233
            ],
            [
              106.8435622,
              10.8374911
            ],
            [
              106.843561,
              10.8374613
            ],
            [
              106.8435482,
              10.8374315
            ],
            [
              106.8435354,
              10.8373983
            ],
            [
              106.843561,
              10.8373971
            ],
            [
              106.8436089,
              10.8373868
            ],
            [
              106.8436358,
              10.8373673
            ],
            [
              106.8436626,
              10.8373524
            ],
            [
              106.8437,
              10.8373467
            ],
            [
              106.8437362,
              10.8373535
            ],
            [
              106.8437724,
              10.8373639
            ],
            [
              106.8438013,
              10.8373825
            ],
            [
              106.8438311,
              10.8374057
            ],
            [
              106.8438711,
              10.8374305
            ],
            [
              106.8439243,
              10.8374446
            ],
            [
              106.8439813,
              10.8374508
            ],
            [
              106.8440277,
              10.8374482
            ],
            [
              106.8440782,
              10.837435
            ],
            [
              106.8440835,
              10.8374533
            ],
            [
              106.8440911,
              10.8374739
            ],
            [
              106.8441057,
              10.8374969
            ],
            [
              106.8441232,
              10.8375135
            ],
            [
              106.8441489,
              10.8375273
            ],
            [
              106.8441781,
              10.8375336
            ],
            [
              106.8441401,
              10.8376081
            ],
            [
              106.8436895,
              10.8377469
            ]
          ]
        ]
      },
      "id": "way/1223367848"
    },
    {
      "type": "Feature",
      "properties": {
        "@id": "way/1241272211",
        "leisure": "playground",
        "surface": "grass"
      },
      "geometry": {
        "type": "Polygon",
        "coordinates": [
          [
            [
              106.8450162,
              10.847418
            ],
            [
              106.8450093,
              10.8474007
            ],
            [
              106.8450114,
              10.8473911
            ],
            [
              106.8450173,
              10.8473829
            ],
            [
              106.845024,
              10.847382
            ],
            [
              106.8450506,
              10.8473984
            ],
            [
              106.8450977,
              10.8474236
            ],
            [
              106.8451391,
              10.8474251
            ],
            [
              106.8451663,
              10.8473942
            ],
            [
              106.8451962,
              10.8473634
            ],
            [
              106.8452576,
              10.8473283
            ],
            [
              106.8452815,
              10.8473272
            ],
            [
              106.8453028,
              10.847335
            ],
            [
              106.8453361,
              10.8473466
            ],
            [
              106.8453294,
              10.8473715
            ],
            [
              106.8453162,
              10.8474068
            ],
            [
              106.8453077,
              10.8474318
            ],
            [
              106.8453019,
              10.8474768
            ],
            [
              106.8452755,
              10.8475053
            ],
            [
              106.8452451,
              10.8475247
            ],
            [
              106.8452188,
              10.8475188
            ],
            [
              106.8452036,
              10.8474957
            ],
            [
              106.8451951,
              10.8474725
            ],
            [
              106.8451918,
              10.8474474
            ],
            [
              106.8451723,
              10.8474384
            ],
            [
              106.8451617,
              10.8474391
            ],
            [
              106.8451511,
              10.8474418
            ],
            [
              106.8451363,
              10.8474643
            ],
            [
              106.8451298,
              10.8474776
            ],
            [
              106.845112,
              10.8474853
            ],
            [
              106.8450875,
              10.8474834
            ],
            [
              106.8450706,
              10.8474685
            ],
            [
              106.8450514,
              10.8474391
            ],
            [
              106.8450358,
              10.8474254
            ],
            [
              106.8450162,
              10.847418
            ]
          ]
        ]
      },
      "id": "way/1241272211"
    },
    {
      "type": "Feature",
      "properties": {
        "@id": "way/1238014252",
        "leisure": "playground",
        "surface": "grass"
      },
      "geometry": {
        "type": "Polygon",
        "coordinates": [
          [
            [
              106.8430979,
              10.8467301
            ],
            [
              106.8433778,
              10.846838
            ],
            [
              106.8433697,
              10.8468552
            ],
            [
              106.8433573,
              10.846871
            ],
            [
              106.8433352,
              10.8468876
            ],
            [
              106.8433045,
              10.8469089
            ],
            [
              106.8432788,
              10.8469282
            ],
            [
              106.8432522,
              10.8469478
            ],
            [
              106.8432278,
              10.8469687
            ],
            [
              106.8431998,
              10.8469994
            ],
            [
              106.8431714,
              10.847035
            ],
            [
              106.8431502,
              10.8470558
            ],
            [
              106.8431307,
              10.8470724
            ],
            [
              106.8431115,
              10.8470847
            ],
            [
              106.8430853,
              10.847096
            ],
            [
              106.8430721,
              10.8470918
            ],
            [
              106.8430621,
              10.8470791
            ],
            [
              106.8430589,
              10.8470471
            ],
            [
              106.8430579,
              10.8470324
            ],
            [
              106.843058,
              10.8470156
            ],
            [
              106.8430603,
              10.8469981
            ],
            [
              106.8430672,
              10.8469815
            ],
            [
              106.843074,
              10.8469648
            ],
            [
              106.8430776,
              10.8469312
            ],
            [
              106.8430734,
              10.8469005
            ],
            [
              106.8430709,
              10.8468835
            ],
            [
              106.8430655,
              10.8468657
            ],
            [
              106.8430589,
              10.8468477
            ],
            [
              106.8430537,
              10.8468317
            ],
            [
              106.8430479,
              10.846808
            ],
            [
              106.8430493,
              10.8467856
            ],
            [
              106.8430556,
              10.8467593
            ],
            [
              106.8430656,
              10.8467491
            ],
            [
              106.8430788,
              10.8467333
            ],
            [
              106.8430979,
              10.8467301
            ]
          ]
        ]
      },
      "id": "way/1238014252"
    },
    {
      "type": "Feature",
      "properties": {
        "@id": "way/1023697349",
        "leisure": "playground"
      },
      "geometry": {
        "type": "Polygon",
        "coordinates": [
          [
            [
              106.7581727,
              10.8717604
            ],
            [
              106.7584809,
              10.871549
            ],
            [
              106.7585457,
              10.8715656
            ],
            [
              106.7585836,
              10.871725
            ],
            [
              106.758193,
              10.8718116
            ],
            [
              106.7581727,
              10.8717604
            ]
          ]
        ]
      },
      "id": "way/1023697349"
    },
    {
      "type": "Feature",
      "properties": {
        "@id": "way/1023697350",
        "leisure": "playground"
      },
      "geometry": {
        "type": "Polygon",
        "coordinates": [
          [
            [
              106.7586629,
              10.8714068
            ],
            [
              106.7589923,
              10.8711607
            ],
            [
              106.7590376,
              10.8711712
            ],
            [
              106.7590791,
              10.8713384
            ],
            [
              106.7586761,
              10.8714355
            ],
            [
              106.7586629,
              10.8714068
            ]
          ]
        ]
      },
      "id": "way/1023697350"
    },
    {
      "type": "Feature",
      "properties": {
        "@id": "way/1023697351",
        "leisure": "playground"
      },
      "geometry": {
        "type": "Polygon",
        "coordinates": [
          [
            [
              106.7591345,
              10.8710577
            ],
            [
              106.759474,
              10.8708133
            ],
            [
              106.7595072,
              10.8708049
            ],
            [
              106.7595258,
              10.8708178
            ],
            [
              106.7595637,
              10.8709787
            ],
            [
              106.7591434,
              10.8710785
            ],
            [
              106.7591345,
              10.8710577
            ]
          ]
        ]
      },
      "id": "way/1023697351"
    },
    {
      "type": "Feature",
      "properties": {
        "@id": "way/488623193",
        "leisure": "playground",
        "name": "Sân Gạch"
      },
      "geometry": {
        "type": "Polygon",
        "coordinates": [
          [
            [
              106.7808894,
              10.8827247
            ],
            [
              106.7807168,
              10.8825822
            ],
            [
              106.7810424,
              10.8821777
            ],
            [
              106.7812347,
              10.8823337
            ],
            [
              106.7808894,
              10.8827247
            ]
          ]
        ]
      },
      "id": "way/488623193"
    },
    {
      "type": "Feature",
      "properties": {
        "@id": "way/1115836711",
        "leisure": "playground"
      },
      "geometry": {
        "type": "Polygon",
        "coordinates": [
          [
            [
              106.7539175,
              10.906406
            ],
            [
              106.7539153,
              10.9063996
            ],
            [
              106.753916,
              10.9063934
            ],
            [
              106.7539232,
              10.9063878
            ],
            [
              106.753935,
              10.9063867
            ],
            [
              106.7539485,
              10.9063902
            ],
            [
              106.7539595,
              10.9063948
            ],
            [
              106.7539735,
              10.9063965
            ],
            [
              106.7539773,
              10.9064148
            ],
            [
              106.7539642,
              10.9064216
            ],
            [
              106.7539548,
              10.9064272
            ],
            [
              106.753945,
              10.9064271
            ],
            [
              106.7539375,
              10.9064247
            ],
            [
              106.7539265,
              10.9064181
            ],
            [
              106.7539217,
              10.9064139
            ],
            [
              106.7539175,
              10.906406
            ]
          ]
        ]
      },
      "id": "way/1115836711"
    },
    {
      "type": "Feature",
      "properties": {
        "@id": "way/1115836712",
        "leisure": "playground"
      },
      "geometry": {
        "type": "Polygon",
        "coordinates": [
          [
            [
              106.7539667,
              10.9064511
            ],
            [
              106.7539693,
              10.9064427
            ],
            [
              106.7539784,
              10.9064307
            ],
            [
              106.7539883,
              10.9064215
            ],
            [
              106.7540013,
              10.9064143
            ],
            [
              106.7540074,
              10.9064125
            ],
            [
              106.7540095,
              10.906413
            ],
            [
              106.7540157,
              10.906415
            ],
            [
              106.7540232,
              10.9064195
            ],
            [
              106.7540268,
              10.9064278
            ],
            [
              106.7540243,
              10.9064375
            ],
            [
              106.7540171,
              10.9064487
            ],
            [
              106.7540059,
              10.9064587
            ],
            [
              106.7539933,
              10.9064668
            ],
            [
              106.7539813,
              10.9064681
            ],
            [
              106.7539736,
              10.906466
            ],
            [
              106.7539672,
              10.9064579
            ],
            [
              106.7539667,
              10.9064511
            ]
          ]
        ]
      },
      "id": "way/1115836712"
    },
    {
      "type": "Feature",
      "properties": {
        "@id": "way/799546519",
        "leisure": "playground"
      },
      "geometry": {
        "type": "Polygon",
        "coordinates": [
          [
            [
              107.0558017,
              10.5894596
            ],
            [
              107.0556267,
              10.5894616
            ],
            [
              107.0556242,
              10.589066
            ],
            [
              107.055676,
              10.5890656
            ],
            [
              107.0556705,
              10.58844
            ],
            [
              107.0557983,
              10.5884389
            ],
            [
              107.0558017,
              10.5894596
            ]
          ]
        ]
      },
      "id": "way/799546519"
    },
    {
      "type": "Feature",
      "properties": {
        "@id": "way/797604634",
        "leisure": "playground"
      },
      "geometry": {
        "type": "Polygon",
        "coordinates": [
          [
            [
              106.651764,
              10.9931044
            ],
            [
              106.6519489,
              10.993101
            ],
            [
              106.6519584,
              10.9931019
            ],
            [
              106.6519654,
              10.9931063
            ],
            [
              106.6519716,
              10.9931132
            ],
            [
              106.6519809,
              10.993125
            ],
            [
              106.6518543,
              10.9932232
            ],
            [
              106.6517612,
              10.9931212
            ],
            [
              106.6517587,
              10.9931166
            ],
            [
              106.6517577,
              10.9931117
            ],
            [
              106.6517579,
              10.9931076
            ],
            [
              106.65176,
              10.9931053
            ],
            [
              106.651764,
              10.9931044
            ]
          ]
        ]
      },
      "id": "way/797604634"
    },
    {
      "type": "Feature",
      "properties": {
        "@id": "way/1427468916",
        "leisure": "playground"
      },
      "geometry": {
        "type": "Polygon",
        "coordinates": [
          [
            [
              106.7031503,
              11.1340853
            ],
            [
              106.7031496,
              11.1340924
            ],
            [
              106.7031466,
              11.1341002
            ],
            [
              106.703139,
              11.1341078
            ],
            [
              106.70313,
              11.1341135
            ],
            [
              106.7031185,
              11.1341201
            ],
            [
              106.7031022,
              11.134126
            ],
            [
              106.7030827,
              11.1341297
            ],
            [
              106.7030593,
              11.1341308
            ],
            [
              106.7030308,
              11.1341295
            ],
            [
              106.7030106,
              11.1341266
            ],
            [
              106.7029903,
              11.1341213
            ],
            [
              106.7029724,
              11.1341139
            ],
            [
              106.7029576,
              11.1341016
            ],
            [
              106.7029478,
              11.1340885
            ],
            [
              106.7028678,
              11.1339518
            ],
            [
              106.7028644,
              11.1339438
            ],
            [
              106.7028644,
              11.1339362
            ],
            [
              106.7028695,
              11.1339276
            ],
            [
              106.7028766,
              11.1339233
            ],
            [
              106.7028864,
              11.1339219
            ],
            [
              106.7029053,
              11.1339239
            ],
            [
              106.7030158,
              11.1339435
            ],
            [
              106.7030689,
              11.1339491
            ],
            [
              106.7031192,
              11.1339485
            ],
            [
              106.7031638,
              11.1339428
            ],
            [
              106.7032061,
              11.1339335
            ],
            [
              106.7032162,
              11.1339335
            ],
            [
              106.7032236,
              11.1339375
            ],
            [
              106.703228,
              11.1339475
            ],
            [
              106.7032267,
              11.1339561
            ],
            [
              106.7031608,
              11.1340585
            ],
            [
              106.7031527,
              11.1340748
            ],
            [
              106.7031503,
              11.1340853
            ]
          ]
        ]
      },
      "id": "way/1427468916"
    },
    {
      "type": "Feature",
      "properties": {
        "@id": "node/1769477886",
        "leisure": "playground",
        "operator": "The Garden Mall"
      },
      "geometry": {
        "type": "Point",
        "coordinates": [
          106.6578401,
          10.754757
        ]
      },
      "id": "node/1769477886"
    },
    {
      "type": "Feature",
      "properties": {
        "@id": "node/2649575434",
        "leisure": "playground"
      },
      "geometry": {
        "type": "Point",
        "coordinates": [
          107.0747682,
          10.3433399
        ]
      },
      "id": "node/2649575434"
    },
    {
      "type": "Feature",
      "properties": {
        "@id": "node/3608623504",
        "leisure": "playground"
      },
      "geometry": {
        "type": "Point",
        "coordinates": [
          106.6837906,
          10.8038027
        ]
      },
      "id": "node/3608623504"
    },
    {
      "type": "Feature",
      "properties": {
        "@id": "node/4294367399",
        "leisure": "playground"
      },
      "geometry": {
        "type": "Point",
        "coordinates": [
          106.7206081,
          10.8647775
        ]
      },
      "id": "node/4294367399"
    },
    {
      "type": "Feature",
      "properties": {
        "@id": "node/4451200391",
        "internet_access": "wlan",
        "leisure": "playground",
        "opening_hours": "24/7"
      },
      "geometry": {
        "type": "Point",
        "coordinates": [
          106.6647223,
          10.8160769
        ]
      },
      "id": "node/4451200391"
    },
    {
      "type": "Feature",
      "properties": {
        "@id": "node/4594004291",
        "leisure": "playground"
      },
      "geometry": {
        "type": "Point",
        "coordinates": [
          106.714879,
          10.7326678
        ]
      },
      "id": "node/4594004291"
    },
    {
      "type": "Feature",
      "properties": {
        "@id": "node/4597397390",
        "internet_access": "wlan",
        "leisure": "playground",
        "opening_hours": "Mo-Su 05:00-19:00"
      },
      "geometry": {
        "type": "Point",
        "coordinates": [
          106.58521,
          10.895289
        ]
      },
      "id": "node/4597397390"
    },
    {
      "type": "Feature",
      "properties": {
        "@id": "node/4603449391",
        "leisure": "playground"
      },
      "geometry": {
        "type": "Point",
        "coordinates": [
          106.7690385,
          10.771665
        ]
      },
      "id": "node/4603449391"
    },
    {
      "type": "Feature",
      "properties": {
        "@id": "node/4809094965",
        "leisure": "playground",
        "name": "Bida A9"
      },
      "geometry": {
        "type": "Point",
        "coordinates": [
          106.8070011,
          10.8790934
        ]
      },
      "id": "node/4809094965"
    },
    {
      "type": "Feature",
      "properties": {
        "@id": "node/4818216530",
        "leisure": "playground"
      },
      "geometry": {
        "type": "Point",
        "coordinates": [
          106.6046648,
          10.6838904
        ]
      },
      "id": "node/4818216530"
    },
    {
      "type": "Feature",
      "properties": {
        "@id": "node/4865523001",
        "leisure": "playground"
      },
      "geometry": {
        "type": "Point",
        "coordinates": [
          106.6075663,
          10.8068896
        ]
      },
      "id": "node/4865523001"
    },
    {
      "type": "Feature",
      "properties": {
        "@id": "node/5003536415",
        "leisure": "playground"
      },
      "geometry": {
        "type": "Point",
        "coordinates": [
          106.6949497,
          10.7762116
        ]
      },
      "id": "node/5003536415"
    },
    {
      "type": "Feature",
      "properties": {
        "@id": "node/5311132621",
        "leisure": "playground"
      },
      "geometry": {
        "type": "Point",
        "coordinates": [
          106.6477044,
          10.8310828
        ]
      },
      "id": "node/5311132621"
    },
    {
      "type": "Feature",
      "properties": {
        "@id": "node/5595939520",
        "addr:housenumber": "3",
        "addr:street": "Ba Cu",
        "leisure": "playground",
        "name": "Miow"
      },
      "geometry": {
        "type": "Point",
        "coordinates": [
          107.0737924,
          10.3481898
        ]
      },
      "id": "node/5595939520"
    },
    {
      "type": "Feature",
      "properties": {
        "@id": "node/6315388839",
        "leisure": "playground"
      },
      "geometry": {
        "type": "Point",
        "coordinates": [
          106.6951527,
          10.8035629
        ]
      },
      "id": "node/6315388839"
    },
    {
      "type": "Feature",
      "properties": {
        "@id": "node/6690808888",
        "leisure": "playground"
      },
      "geometry": {
        "type": "Point",
        "coordinates": [
          106.7045734,
          10.7689667
        ]
      },
      "id": "node/6690808888"
    },
    {
      "type": "Feature",
      "properties": {
        "@id": "node/6912030995",
        "leisure": "playground"
      },
      "geometry": {
        "type": "Point",
        "coordinates": [
          106.6910962,
          10.7746113
        ]
      },
      "id": "node/6912030995"
    },
    {
      "type": "Feature",
      "properties": {
        "@id": "node/6914991066",
        "leisure": "playground"
      },
      "geometry": {
        "type": "Point",
        "coordinates": [
          106.6765106,
          10.8163791
        ]
      },
      "id": "node/6914991066"
    },
    {
      "type": "Feature",
      "properties": {
        "@id": "node/6941243412",
        "leisure": "playground",
        "name": "Kim Oanh Plaza"
      },
      "geometry": {
        "type": "Point",
        "coordinates": [
          106.6746876,
          11.0419023
        ]
      },
      "id": "node/6941243412"
    },
    {
      "type": "Feature",
      "properties": {
        "@id": "node/7353510333",
        "leisure": "playground"
      },
      "geometry": {
        "type": "Point",
        "coordinates": [
          107.0840111,
          10.3610326
        ]
      },
      "id": "node/7353510333"
    },
    {
      "type": "Feature",
      "properties": {
        "@id": "node/7353510334",
        "leisure": "playground"
      },
      "geometry": {
        "type": "Point",
        "coordinates": [
          107.0836008,
          10.3610801
        ]
      },
      "id": "node/7353510334"
    },
    {
      "type": "Feature",
      "properties": {
        "@id": "node/7353510373",
        "leisure": "playground"
      },
      "geometry": {
        "type": "Point",
        "coordinates": [
          107.0814899,
          10.3586448
        ]
      },
      "id": "node/7353510373"
    },
    {
      "type": "Feature",
      "properties": {
        "@id": "node/10157305805",
        "leisure": "playground"
      },
      "geometry": {
        "type": "Point",
        "coordinates": [
          106.6440052,
          10.7054503
        ]
      },
      "id": "node/10157305805"
    },
    {
      "type": "Feature",
      "properties": {
        "@id": "node/11491598070",
        "leisure": "playground"
      },
      "geometry": {
        "type": "Point",
        "coordinates": [
          106.6944442,
          10.7887293
        ]
      },
      "id": "node/11491598070"
    },
    {
      "type": "Feature",
      "properties": {
        "@id": "node/12133560813",
        "leisure": "playground"
      },
      "geometry": {
        "type": "Point",
        "coordinates": [
          106.7242505,
          10.7279013
        ]
      },
      "id": "node/12133560813"
    },
    {
      "type": "Feature",
      "properties": {
        "@id": "node/12325357855",
        "leisure": "playground"
      },
      "geometry": {
        "type": "Point",
        "coordinates": [
          106.7262791,
          10.7235184
        ]
      },
      "id": "node/12325357855"
    },
    {
      "type": "Feature",
      "properties": {
        "@id": "node/12326793574",
        "indoor": "yes",
        "leisure": "playground"
      },
      "geometry": {
        "type": "Point",
        "coordinates": [
          107.3879422,
          10.4712934
        ]
      },
      "id": "node/12326793574"
    },
    {
      "type": "Feature",
      "properties": {
        "@id": "node/12477658480",
        "access": "private",
        "leisure": "playground"
      },
      "geometry": {
        "type": "Point",
        "coordinates": [
          106.636735,
          10.7961677
        ]
      },
      "id": "node/12477658480"
    },
    {
      "type": "Feature",
      "properties": {
        "@id": "node/12824943501",
        "leisure": "playground",
        "name": "Sân bóng đá",
        "opening_hours": "Mo-Su 05:00-20:00"
      },
      "geometry": {
        "type": "Point",
        "coordinates": [
          106.704697,
          10.7222427
        ]
      },
      "id": "node/12824943501"
    },
    {
      "type": "Feature",
      "properties": {
        "@id": "node/12922496997",
        "access": "customers",
        "leisure": "playground",
        "level": "2",
        "name": "tiNi World"
      },
      "geometry": {
        "type": "Point",
        "coordinates": [
          106.6799423,
          10.7411359
        ]
      },
      "id": "node/12922496997"
    }
  ]
}