{
  "type": "FeatureCollection",
  "generator": "overpass-turbo",
  "copyright": "The data included in this document is from www.openstreetmap.org. The data is made available under ODbL.",
  "timestamp": "2025-10-29T12:25:00Z",
  "features": [
    {
      "type": "Feature",
      "properties": {
        "@id": "way/751056641",
        "amenity": "toilets",
        "building": "yes"
      },
      "geometry": {
        "type": "Polygon",
        "coordinates": [
          [
            [
              106.6067701,
              8.6837886
            ],
            [
              106.6067991,
              8.6837233
            ],
            [
              106.6068873,
              8.6837616
            ],
            [
              106.6068583,
              8.6838269
            ],
            [
              106.6067701,
              8.6837886
            ]
          ]
        ]
      },
      "id": "way/751056641"
    },
    {
      "type": "Feature",
      "properties": {
        "@id": "way/753491826",
        "amenity": "toilets",
        "building": "yes"
      },
      "geometry": {
        "type": "Polygon",
        "coordinates": [
          [
            [
              106.5908538,
              8.7068063
            ],
            [
              106.5907583,
              8.7067334
            ],
            [
              106.5907912,
              8.7066913
            ],
            [
              106.5908867,
              8.7067641
            ],
            [
              106.5908538,
              8.7068063
            ]
          ]
        ]
      },
      "id": "way/753491826"
    },
    {
      "type": "Feature",
      "properties": {
        "@id": "way/1323766570",
        "access": "yes",
        "amenity": "toilets",
        "building": "yes",
        "fee": "no"
      },
      "geometry": {
        "type": "Polygon",
        "coordinates": [
          [
            [
              107.2624653,
              10.4052168
            ],
            [
              107.2625278,
              10.4051867
            ],
            [
              107.2625667,
              10.4051371
            ],
            [
              107.2625983,
              10.4051628
            ],
            [
              107.262554,
              10.4052186
            ],
            [
              107.2624833,
              10.4052527
            ],
            [
              107.2624653,
              10.4052168
            ]
          ]
        ]
      },
      "id": "way/1323766570"
    },
    {
      "type": "Feature",
      "properties": {
        "@id": "way/1332424224",
        "amenity": "toilets",
        "building": "yes"
      },
      "geometry": {
        "type": "Polygon",
        "coordinates": [
          [
            [
              106.4592771,
              11.1479064
            ],
            [
              106.4592165,
              11.1478949
            ],
            [
              106.4592342,
              11.147805
            ],
            [
              106.4592947,
              11.1478164
            ],
            [
              106.4592771,
              11.1479064
            ]
          ]
        ]
      },
      "id": "way/1332424224"
    },
    {
      "type": "Feature",
      "properties": {
        "@id": "way/1234682330",
        "access": "yes",
        "amenity": "toilets",
        "building": "yes",
        "building:levels": "1",
        "female": "yes",
        "male": "yes"
      },
      "geometry": {
        "type": "Polygon",
        "coordinates": [
          [
            [
              106.6367484,
              10.7828415
            ],
            [
              106.636725,
              10.7828081
            ],
            [
              106.6368029,
              10.7827554
            ],
            [
              106.6368264,
              10.7827888
            ],
            [
              106.6367484,
              10.7828415
            ]
          ]
        ]
      },
      "id": "way/1234682330"
    },
    {
      "type": "Feature",
      "properties": {
        "@id": "way/1153397799",
        "amenity": "toilets",
        "building": "yes"
      },
      "geometry": {
        "type": "Polygon",
        "coordinates": [
          [
            [
              106.6923547,
              10.7292056
            ],
            [
              106.6923572,
              10.7291132
            ],
            [
              106.6924589,
              10.7291158
            ],
            [
              106.6924564,
              10.7292083
            ],
            [
              106.6923547,
              10.7292056
            ]
          ]
        ]
      },
      "id": "way/1153397799"
    },
    {
      "type": "Feature",
      "properties": {
        "@id": "way/1444550435",
        "amenity": "toilets",
        "building": "yes"
      },
      "geometry": {
        "type": "Polygon",
        "coordinates": [
          [
            [
              106.6683815,
              10.7595389
            ],
            [
              106.6683484,
              10.7595318
            ],
            [
              106.6683613,
              10.7594741
            ],
            [
              106.6683942,
              10.7594816
            ],
            [
              106.6683815,
              10.7595389
            ]
          ]
        ]
      },
      "id": "way/1444550435"
    },
    {
      "type": "Feature",
      "properties": {
        "@id": "way/1019411762",
        "amenity": "toilets",
        "building": "yes"
      },
      "geometry": {
        "type": "Polygon",
        "coordinates": [
          [
            [
              106.6890939,
              10.7679994
            ],
            [
              106.6889384,
              10.7678548
            ],
            [
              106.6889845,
              10.767807
            ],
            [
              106.68914,
              10.7679516
            ],
            [
              106.6890939,
              10.7679994
            ]
          ]
        ]
      },
      "id": "way/1019411762"
    },
    {
      "type": "Feature",
      "properties": {
        "@id": "way/1080063108",
        "amenity": "toilets",
        "building": "yes"
      },
      "geometry": {
        "type": "Polygon",
        "coordinates": [
          [
            [
              106.6722753,
              10.8113098
            ],
            [
              106.6722844,
              10.8112354
            ],
            [
              106.6723599,
              10.8112443
            ],
            [
              106.6723508,
              10.8113187
            ],
            [
              106.6722753,
              10.8113098
            ]
          ]
        ]
      },
      "id": "way/1080063108"
    },
    {
      "type": "Feature",
      "properties": {
        "@id": "way/802069367",
        "amenity": "toilets",
        "building": "yes"
      },
      "geometry": {
        "type": "Polygon",
        "coordinates": [
          [
            [
              106.6991902,
              10.7765483
            ],
            [
              106.6991397,
              10.7764944
            ],
            [
              106.6991781,
              10.7764596
            ],
            [
              106.6992286,
              10.7765135
            ],
            [
              106.6991902,
              10.7765483
            ]
          ]
        ]
      },
      "id": "way/802069367"
    },
    {
      "type": "Feature",
      "properties": {
        "@id": "way/341508365",
        "amenity": "toilets",
        "building": "roof"
      },
      "geometry": {
        "type": "Polygon",
        "coordinates": [
          [
            [
              106.7043079,
              10.7736136
            ],
            [
              106.7042802,
              10.7735856
            ],
            [
              106.7044002,
              10.7734709
            ],
            [
              106.7044279,
              10.773499
            ],
            [
              106.7043079,
              10.7736136
            ]
          ]
        ]
      },
      "id": "way/341508365"
    },
    {
      "type": "Feature",
      "properties": {
        "@id": "way/341508366",
        "amenity": "toilets",
        "building": "roof"
      },
      "geometry": {
        "type": "Polygon",
        "coordinates": [
          [
            [
              106.7041897,
              10.7734891
            ],
            [
              106.704162,
              10.7734611
            ],
            [
              106.704282,
              10.7733464
            ],
            [
              106.7043098,
              10.7733744
            ],
            [
              106.7041897,
              10.7734891
            ]
          ]
        ]
      },
      "id": "way/341508366"
    },
    {
      "type": "Feature",
      "properties": {
        "@id": "way/808022728",
        "amenity": "toilets",
        "building": "yes"
      },
      "geometry": {
        "type": "Polygon",
        "coordinates": [
          [
            [
              106.707034,
              10.7680925
            ],
            [
              106.7070629,
              10.7680325
            ],
            [
              106.7071779,
              10.7680861
            ],
            [
              106.707149,
              10.768146
            ],
            [
              106.707034,
              10.7680925
            ]
          ]
        ]
      },
      "id": "way/808022728"
    },
    {
      "type": "Feature",
      "properties": {
        "@id": "way/1275969817",
        "amenity": "toilets"
      },
      "geometry": {
        "type": "Polygon",
        "coordinates": [
          [
            [
              106.7086908,
              10.7864328
            ],
            [
              106.7086528,
              10.7863414
            ],
            [
              106.7086981,
              10.7863232
            ],
            [
              106.7087361,
              10.7864146
            ],
            [
              106.7086908,
              10.7864328
            ]
          ]
        ]
      },
      "id": "way/1275969817"
    },
    {
      "type": "Feature",
      "properties": {
        "@id": "way/889424157",
        "amenity": "toilets",
        "building": "yes"
      },
      "geometry": {
        "type": "Polygon",
        "coordinates": [
          [
            [
              106.7235896,
              10.7914287
            ],
            [
              106.7235452,
              10.7913008
            ],
            [
              106.7236139,
              10.7912778
            ],
            [
              106.7236583,
              10.7914057
            ],
            [
              106.7235896,
              10.7914287
            ]
          ]
        ]
      },
      "id": "way/889424157"
    },
    {
      "type": "Feature",
      "properties": {
        "@id": "way/807423444",
        "amenity": "toilets",
        "building": "yes"
      },
      "geometry": {
        "type": "Polygon",
        "coordinates": [
          [
            [
              106.7256717,
              10.7978028
            ],
            [
              106.7256252,
              10.7978009
            ],
            [
              106.725633,
              10.7976158
            ],
            [
              106.7256795,
              10.7976177
            ],
            [
              106.7256753,
              10.7977168
            ],
            [
              106.7256717,
              10.7978028
            ]
          ]
        ]
      },
      "id": "way/807423444"
    },
    {
      "type": "Feature",
      "properties": {
        "@id": "way/372685850",
        "amenity": "toilets"
      },
      "geometry": {
        "type": "Polygon",
        "coordinates": [
          [
            [
              106.739299,
              10.8083162
            ],
            [
              106.7392724,
              10.8082789
            ],
            [
              106.7393475,
              10.8082262
            ],
            [
              106.7393766,
              10.8082654
            ],
            [
              106.739299,
              10.8083162
            ]
          ]
        ]
      },
      "id": "way/372685850"
    },
    {
      "type": "Feature",
      "properties": {
        "@id": "way/1224056322",
        "amenity": "toilets",
        "building": "yes"
      },
      "geometry": {
        "type": "Polygon",
        "coordinates": [
          [
            [
              106.7771031,
              10.7941905
            ],
            [
              106.7771031,
              10.7940953
            ],
            [
              106.7772561,
              10.794101
            ],
            [
              106.7772538,
              10.7941939
            ],
            [
              106.7771031,
              10.7941905
            ]
          ]
        ]
      },
      "id": "way/1224056322"
    },
    {
      "type": "Feature",
      "properties": {
        "@id": "way/1113379505",
        "amenity": "toilets",
        "indoor": "room",
        "level": "5;6"
      },
      "geometry": {
        "type": "Polygon",
        "coordinates": [
          [
            [
              106.7643717,
              10.8420555
            ],
            [
              106.7643755,
              10.8420535
            ],
            [
              106.7643823,
              10.8420498
            ],
            [
              106.7643886,
              10.8420619
            ],
            [
              106.7643935,
              10.8420594
            ],
            [
              106.7643981,
              10.842068
            ],
            [
              106.7643828,
              10.8420759
            ],
            [
              106.7643717,
              10.8420555
            ]
          ]
        ]
      },
      "id": "way/1113379505"
    },
    {
      "type": "Feature",
      "properties": {
        "@id": "way/1113416627",
        "amenity": "toilets",
        "indoor": "room",
        "level": "5;6",
        "name": "Men",
        "name:vi": "Nam"
      },
      "geometry": {
        "type": "Polygon",
        "coordinates": [
          [
            [
              106.7643622,
              10.84212
            ],
            [
              106.764348,
              10.8420945
            ],
            [
              106.7643984,
              10.8420677
            ],
            [
              106.7644098,
              10.8420885
            ],
            [
              106.7643993,
              10.8420939
            ],
            [
              106.7644023,
              10.8420996
            ],
            [
              106.7644046,
              10.8421039
            ],
            [
              106.764396,
              10.8421081
            ],
            [
              106.7643935,
              10.8421035
            ],
            [
              106.7643622,
              10.84212
            ]
          ]
        ]
      },
      "id": "way/1113416627"
    },
    {
      "type": "Feature",
      "properties": {
        "@id": "way/1113416632",
        "amenity": "toilets",
        "indoor": "room",
        "level": "0;2;3;4;5;6",
        "name": "Women",
        "name:vi": "Nữ"
      },
      "geometry": {
        "type": "Polygon",
        "coordinates": [
          [
            [
              106.7643622,
              10.84212
            ],
            [
              106.7643935,
              10.8421035
            ],
            [
              106.764396,
              10.8421081
            ],
            [
              106.7644046,
              10.8421039
            ],
            [
              106.7644159,
              10.8421239
            ],
            [
              106.7644103,
              10.8421268
            ],
            [
              106.7644134,
              10.842132
            ],
            [
              106.7644169,
              10.8421378
            ],
            [
              106.7644018,
              10.8421459
            ],
            [
              106.7643824,
              10.8421563
            ],
            [
              106.7643622,
              10.84212
            ]
          ]
        ]
      },
      "id": "way/1113416632"
    },
    {
      "type": "Feature",
      "properties": {
        "@id": "way/1113416633",
        "amenity": "toilets",
        "indoor": "room",
        "level": "0;2;3;4",
        "name": "Men",
        "name:vi": "Nam"
      },
      "geometry": {
        "type": "Polygon",
        "coordinates": [
          [
            [
              106.7643622,
              10.84212
            ],
            [
              106.764348,
              10.8420945
            ],
            [
              106.7643432,
              10.8420859
            ],
            [
              106.7643584,
              10.8420777
            ],
            [
              106.7643935,
              10.8420588
            ],
            [
              106.7643984,
              10.8420677
            ],
            [
              106.7644098,
              10.8420885
            ],
            [
              106.7643993,
              10.8420939
            ],
            [
              106.764402,
              10.8420991
            ],
            [
              106.7644046,
              10.8421039
            ],
            [
              106.764396,
              10.8421081
            ],
            [
              106.7643935,
              10.8421035
            ],
            [
              106.7643622,
              10.84212
            ]
          ]
        ]
      },
      "id": "way/1113416633"
    },
    {
      "type": "Feature",
      "properties": {
        "@id": "way/1224023696",
        "amenity": "toilets",
        "building": "yes"
      },
      "geometry": {
        "type": "Polygon",
        "coordinates": [
          [
            [
              106.8456122,
              10.8340857
            ],
            [
              106.8455875,
              10.834061
            ],
            [
              106.8456126,
              10.834035
            ],
            [
              106.8456381,
              10.8340603
            ],
            [
              106.8456122,
              10.8340857
            ]
          ]
        ]
      },
      "id": "way/1224023696"
    },
    {
      "type": "Feature",
      "properties": {
        "@id": "way/1114998065",
        "amenity": "toilets",
        "building": "yes"
      },
      "geometry": {
        "type": "Polygon",
        "coordinates": [
          [
            [
              106.843972,
              10.8429566
            ],
            [
              106.8440055,
              10.8428759
            ],
            [
              106.8440923,
              10.8429106
            ],
            [
              106.8440588,
              10.8429914
            ],
            [
              106.843972,
              10.8429566
            ]
          ]
        ]
      },
      "id": "way/1114998065"
    },
    {
      "type": "Feature",
      "properties": {
        "@id": "way/1114716588",
        "amenity": "toilets",
        "building": "yes"
      },
      "geometry": {
        "type": "Polygon",
        "coordinates": [
          [
            [
              106.8476705,
              10.8426129
            ],
            [
              106.8476143,
              10.8425395
            ],
            [
              106.8476323,
              10.8425258
            ],
            [
              106.8476387,
              10.8425209
            ],
            [
              106.8476459,
              10.8425154
            ],
            [
              106.8476591,
              10.8425053
            ],
            [
              106.8476955,
              10.8424776
            ],
            [
              106.8477501,
              10.8425529
            ],
            [
              106.8476705,
              10.8426129
            ]
          ]
        ]
      },
      "id": "way/1114716588"
    },
    {
      "type": "Feature",
      "properties": {
        "@id": "way/1114716603",
        "amenity": "toilets",
        "building": "yes"
      },
      "geometry": {
        "type": "Polygon",
        "coordinates": [
          [
            [
              106.8435704,
              10.8407053
            ],
            [
              106.8436135,
              10.840623
            ],
            [
              106.8436858,
              10.8406596
            ],
            [
              106.8436597,
              10.8407094
            ],
            [
              106.843656,
              10.8407165
            ],
            [
              106.8436526,
              10.840723
            ],
            [
              106.8436427,
              10.8407418
            ],
            [
              106.8435704,
              10.8407053
            ]
          ]
        ]
      },
      "id": "way/1114716603"
    },
    {
      "type": "Feature",
      "properties": {
        "@id": "way/1114716610",
        "amenity": "toilets",
        "building": "yes"
      },
      "geometry": {
        "type": "Polygon",
        "coordinates": [
          [
            [
              106.8448834,
              10.8397947
            ],
            [
              106.8448927,
              10.8397027
            ],
            [
              106.8449735,
              10.8397106
            ],
            [
              106.844969,
              10.8397552
            ],
            [
              106.8449678,
              10.8397673
            ],
            [
              106.8449665,
              10.8397798
            ],
            [
              106.8449642,
              10.8398026
            ],
            [
              106.8448834,
              10.8397947
            ]
          ]
        ]
      },
      "id": "way/1114716610"
    },
    {
      "type": "Feature",
      "properties": {
        "@id": "way/1225821926",
        "amenity": "toilets",
        "building": "yes"
      },
      "geometry": {
        "type": "Polygon",
        "coordinates": [
          [
            [
              106.8392301,
              10.8459764
            ],
            [
              106.8392004,
              10.8458412
            ],
            [
              106.8392643,
              10.8458277
            ],
            [
              106.839294,
              10.8459629
            ],
            [
              106.8392301,
              10.8459764
            ]
          ]
        ]
      },
      "id": "way/1225821926"
    },
    {
      "type": "Feature",
      "properties": {
        "@id": "way/1024308062",
        "access": "yes",
        "amenity": "toilets",
        "building": "yes"
      },
      "geometry": {
        "type": "Polygon",
        "coordinates": [
          [
            [
              106.767574,
              10.8979378
            ],
            [
              106.7675649,
              10.8977769
            ],
            [
              106.767624,
              10.8977736
            ],
            [
              106.7676331,
              10.8979346
            ],
            [
              106.767574,
              10.8979378
            ]
          ]
        ]
      },
      "id": "way/1024308062"
    },
    {
      "type": "Feature",
      "properties": {
        "@id": "node/1276258560",
        "amenity": "toilets"
      },
      "geometry": {
        "type": "Point",
        "coordinates": [
          107.0840557,
          10.3233431
        ]
      },
      "id": "node/1276258560"
    },
    {
      "type": "Feature",
      "properties": {
        "@id": "node/1769477888",
        "access": "yes",
        "amenity": "toilets",
        "fee": "no",
        "wheelchair": "yes"
      },
      "geometry": {
        "type": "Point",
        "coordinates": [
          106.6965633,
          10.7709806
        ]
      },
      "id": "node/1769477888"
    },
    {
      "type": "Feature",
      "properties": {
        "@id": "node/1770193847",
        "amenity": "toilets"
      },
      "geometry": {
        "type": "Point",
        "coordinates": [
          106.6977341,
          10.7816159
        ]
      },
      "id": "node/1770193847"
    },
    {
      "type": "Feature",
      "properties": {
        "@id": "node/1773221967",
        "amenity": "toilets",
        "fee": "no"
      },
      "geometry": {
        "type": "Point",
        "coordinates": [
          106.7036792,
          10.7863484
        ]
      },
      "id": "node/1773221967"
    },
    {
      "type": "Feature",
      "properties": {
        "@id": "node/1773221985",
        "amenity": "toilets",
        "check_date": "2024-12-23",
        "check_date:wheelchair": "2024-12-23",
        "fee": "no",
        "wheelchair": "yes"
      },
      "geometry": {
        "type": "Point",
        "coordinates": [
          106.7030394,
          10.7865208
        ]
      },
      "id": "node/1773221985"
    },
    {
      "type": "Feature",
      "properties": {
        "@id": "node/2432387315",
        "amenity": "toilets"
      },
      "geometry": {
        "type": "Point",
        "coordinates": [
          107.0842423,
          10.3266124
        ]
      },
      "id": "node/2432387315"
    },
    {
      "type": "Feature",
      "properties": {
        "@id": "node/2593667544",
        "access": "public",
        "amenity": "toilets",
        "name": "WC Công cộng",
        "toilets:disposal": "bucket"
      },
      "geometry": {
        "type": "Point",
        "coordinates": [
          106.6435314,
          10.8419411
        ]
      },
      "id": "node/2593667544"
    },
    {
      "type": "Feature",
      "properties": {
        "@id": "node/2609878893",
        "access": "yes",
        "amenity": "toilets",
        "fee": "no"
      },
      "geometry": {
        "type": "Point",
        "coordinates": [
          106.677489,
          10.7823444
        ]
      },
      "id": "node/2609878893"
    },
    {
      "type": "Feature",
      "properties": {
        "@id": "node/2649575435",
        "amenity": "toilets"
      },
      "geometry": {
        "type": "Point",
        "coordinates": [
          107.0745674,
          10.3426634
        ]
      },
      "id": "node/2649575435"
    },
    {
      "type": "Feature",
      "properties": {
        "@id": "node/2899388637",
        "amenity": "toilets"
      },
      "geometry": {
        "type": "Point",
        "coordinates": [
          107.0712403,
          10.3390998
        ]
      },
      "id": "node/2899388637"
    },
    {
      "type": "Feature",
      "properties": {
        "@id": "node/2927364603",
        "amenity": "toilets",
        "check_date": "2024-12-15",
        "fee": "no",
        "unisex": "yes"
      },
      "geometry": {
        "type": "Point",
        "coordinates": [
          106.6930457,
          10.7751339
        ]
      },
      "id": "node/2927364603"
    },
    {
      "type": "Feature",
      "properties": {
        "@id": "node/2974077447",
        "amenity": "toilets",
        "check_date": "2024-12-20",
        "fee": "no"
      },
      "geometry": {
        "type": "Point",
        "coordinates": [
          106.7030237,
          10.7857807
        ]
      },
      "id": "node/2974077447"
    },
    {
      "type": "Feature",
      "properties": {
        "@id": "node/2991925333",
        "access": "yes",
        "amenity": "toilets",
        "fee": "no",
        "level": "0"
      },
      "geometry": {
        "type": "Point",
        "coordinates": [
          106.662417,
          10.814822
        ]
      },
      "id": "node/2991925333"
    },
    {
      "type": "Feature",
      "properties": {
        "@id": "node/2991929533",
        "amenity": "toilets"
      },
      "geometry": {
        "type": "Point",
        "coordinates": [
          106.663554,
          10.815838
        ]
      },
      "id": "node/2991929533"
    },
    {
      "type": "Feature",
      "properties": {
        "@id": "node/2991930733",
        "amenity": "toilets"
      },
      "geometry": {
        "type": "Point",
        "coordinates": [
          106.66465,
          10.816315
        ]
      },
      "id": "node/2991930733"
    },
    {
      "type": "Feature",
      "properties": {
        "@id": "node/3482754604",
        "amenity": "toilets"
      },
      "geometry": {
        "type": "Point",
        "coordinates": [
          106.5284705,
          11.0592268
        ]
      },
      "id": "node/3482754604"
    },
    {
      "type": "Feature",
      "properties": {
        "@id": "node/3482754614",
        "amenity": "toilets"
      },
      "geometry": {
        "type": "Point",
        "coordinates": [
          106.5291521,
          11.0614713
        ]
      },
      "id": "node/3482754614"
    },
    {
      "type": "Feature",
      "properties": {
        "@id": "node/3506740123",
        "amenity": "toilets"
      },
      "geometry": {
        "type": "Point",
        "coordinates": [
          106.6921469,
          10.7879606
        ]
      },
      "id": "node/3506740123"
    },
    {
      "type": "Feature",
      "properties": {
        "@id": "node/3506748532",
        "amenity": "toilets"
      },
      "geometry": {
        "type": "Point",
        "coordinates": [
          106.6953012,
          10.7884243
        ]
      },
      "id": "node/3506748532"
    },
    {
      "type": "Feature",
      "properties": {
        "@id": "node/3625601693",
        "amenity": "toilets"
      },
      "geometry": {
        "type": "Point",
        "coordinates": [
          106.6776589,
          10.8127147
        ]
      },
      "id": "node/3625601693"
    },
    {
      "type": "Feature",
      "properties": {
        "@id": "node/3744277203",
        "amenity": "toilets"
      },
      "geometry": {
        "type": "Point",
        "coordinates": [
          106.7166106,
          10.7253107
        ]
      },
      "id": "node/3744277203"
    },
    {
      "type": "Feature",
      "properties": {
        "@id": "node/3744277221",
        "amenity": "toilets",
        "opening_hours": "Mo-Su 09:00-18:00"
      },
      "geometry": {
        "type": "Point",
        "coordinates": [
          106.7164843,
          10.7268229
        ]
      },
      "id": "node/3744277221"
    },
    {
      "type": "Feature",
      "properties": {
        "@id": "node/4595319755",
        "amenity": "toilets"
      },
      "geometry": {
        "type": "Point",
        "coordinates": [
          106.6974415,
          10.7728182
        ]
      },
      "id": "node/4595319755"
    },
    {
      "type": "Feature",
      "properties": {
        "@id": "node/4595319807",
        "amenity": "toilets"
      },
      "geometry": {
        "type": "Point",
        "coordinates": [
          106.6980691,
          10.7731554
        ]
      },
      "id": "node/4595319807"
    },
    {
      "type": "Feature",
      "properties": {
        "@id": "node/4600756851",
        "amenity": "toilets"
      },
      "geometry": {
        "type": "Point",
        "coordinates": [
          106.7003632,
          10.7747819
        ]
      },
      "id": "node/4600756851"
    },
    {
      "type": "Feature",
      "properties": {
        "@id": "node/4610730733",
        "amenity": "toilets"
      },
      "geometry": {
        "type": "Point",
        "coordinates": [
          106.6930115,
          10.7695443
        ]
      },
      "id": "node/4610730733"
    },
    {
      "type": "Feature",
      "properties": {
        "@id": "node/4627619328",
        "amenity": "toilets"
      },
      "geometry": {
        "type": "Point",
        "coordinates": [
          106.7044038,
          10.7731904
        ]
      },
      "id": "node/4627619328"
    },
    {
      "type": "Feature",
      "properties": {
        "@id": "node/4633928289",
        "amenity": "toilets"
      },
      "geometry": {
        "type": "Point",
        "coordinates": [
          106.6494477,
          10.7481649
        ]
      },
      "id": "node/4633928289"
    },
    {
      "type": "Feature",
      "properties": {
        "@id": "node/4698970399",
        "amenity": "toilets"
      },
      "geometry": {
        "type": "Point",
        "coordinates": [
          106.4628875,
          11.1457554
        ]
      },
      "id": "node/4698970399"
    },
    {
      "type": "Feature",
      "properties": {
        "@id": "node/4709907891",
        "amenity": "toilets"
      },
      "geometry": {
        "type": "Point",
        "coordinates": [
          106.5652856,
          10.8812614
        ]
      },
      "id": "node/4709907891"
    },
    {
      "type": "Feature",
      "properties": {
        "@id": "node/4772139321",
        "amenity": "toilets"
      },
      "geometry": {
        "type": "Point",
        "coordinates": [
          107.0898408,
          10.3334081
        ]
      },
      "id": "node/4772139321"
    },
    {
      "type": "Feature",
      "properties": {
        "@id": "node/4772139322",
        "amenity": "toilets"
      },
      "geometry": {
        "type": "Point",
        "coordinates": [
          107.089545,
          10.3333087
        ]
      },
      "id": "node/4772139322"
    },
    {
      "type": "Feature",
      "properties": {
        "@id": "node/5181704521",
        "access": "yes",
        "amenity": "toilets",
        "fee": "no"
      },
      "geometry": {
        "type": "Point",
        "coordinates": [
          106.6908167,
          10.7748917
        ]
      },
      "id": "node/5181704521"
    },
    {
      "type": "Feature",
      "properties": {
        "@id": "node/5238075020",
        "access": "yes",
        "amenity": "toilets",
        "source": "survey",
        "toilets:disposal": "flush"
      },
      "geometry": {
        "type": "Point",
        "coordinates": [
          106.5296347,
          11.0627987
        ]
      },
      "id": "node/5238075020"
    },
    {
      "type": "Feature",
      "properties": {
        "@id": "node/5306320225",
        "amenity": "toilets"
      },
      "geometry": {
        "type": "Point",
        "coordinates": [
          106.6928392,
          10.7725508
        ]
      },
      "id": "node/5306320225"
    },
    {
      "type": "Feature",
      "properties": {
        "@id": "node/5352865282",
        "amenity": "toilets"
      },
      "geometry": {
        "type": "Point",
        "coordinates": [
          106.6664507,
          10.8160378
        ]
      },
      "id": "node/5352865282"
    },
    {
      "type": "Feature",
      "properties": {
        "@id": "node/5406936325",
        "amenity": "toilets"
      },
      "geometry": {
        "type": "Point",
        "coordinates": [
          106.6902667,
          10.767636
        ]
      },
      "id": "node/5406936325"
    },
    {
      "type": "Feature",
      "properties": {
        "@id": "node/5449587322",
        "amenity": "toilets",
        "operator": "2,000₫"
      },
      "geometry": {
        "type": "Point",
        "coordinates": [
          106.6647105,
          10.8010103
        ]
      },
      "id": "node/5449587322"
    },
    {
      "type": "Feature",
      "properties": {
        "@id": "node/5595939515",
        "amenity": "toilets"
      },
      "geometry": {
        "type": "Point",
        "coordinates": [
          107.0734248,
          10.3477796
        ]
      },
      "id": "node/5595939515"
    },
    {
      "type": "Feature",
      "properties": {
        "@id": "node/5598918364",
        "amenity": "toilets",
        "fee": "no"
      },
      "geometry": {
        "type": "Point",
        "coordinates": [
          106.6693336,
          10.7708575
        ]
      },
      "id": "node/5598918364"
    },
    {
      "type": "Feature",
      "properties": {
        "@id": "node/5599418867",
        "amenity": "toilets"
      },
      "geometry": {
        "type": "Point",
        "coordinates": [
          107.1018089,
          10.3557245
        ]
      },
      "id": "node/5599418867"
    },
    {
      "type": "Feature",
      "properties": {
        "@id": "node/5922616580",
        "access": "customers",
        "amenity": "toilets",
        "drinking_water": "no",
        "fee": "no",
        "female": "yes",
        "male": "yes",
        "toilets:disposal": "flush",
        "toilets:position": "seated;urinal"
      },
      "geometry": {
        "type": "Point",
        "coordinates": [
          106.462326,
          11.1427242
        ]
      },
      "id": "node/5922616580"
    },
    {
      "type": "Feature",
      "properties": {
        "@id": "node/5922616776",
        "access": "customers",
        "amenity": "toilets",
        "drinking_water": "no",
        "fee": "no",
        "female": "yes",
        "male": "yes",
        "toilets:disposal": "flush",
        "toilets:position": "seated;urinal"
      },
      "geometry": {
        "type": "Point",
        "coordinates": [
          106.4608481,
          11.1455716
        ]
      },
      "id": "node/5922616776"
    },
    {
      "type": "Feature",
      "properties": {
        "@id": "node/6045633937",
        "amenity": "toilets"
      },
      "geometry": {
        "type": "Point",
        "coordinates": [
          106.707053,
          10.7884412
        ]
      },
      "id": "node/6045633937"
    },
    {
      "type": "Feature",
      "properties": {
        "@id": "node/6315671637",
        "amenity": "toilets"
      },
      "geometry": {
        "type": "Point",
        "coordinates": [
          106.6686711,
          10.7568913
        ]
      },
      "id": "node/6315671637"
    },
    {
      "type": "Feature",
      "properties": {
        "@id": "node/6512373937",
        "access": "permissive",
        "amenity": "toilets",
        "changing_table": "yes",
        "description": "Mostly for VinHomes BaSon residents. It probably will be closed for general public soon.",
        "toilets:disposal": "flush",
        "unisex": "yes",
        "wheelchair": "yes"
      },
      "geometry": {
        "type": "Point",
        "coordinates": [
          106.7125852,
          10.7860032
        ]
      },
      "id": "node/6512373937"
    },
    {
      "type": "Feature",
      "properties": {
        "@id": "node/6791942986",
        "amenity": "toilets"
      },
      "geometry": {
        "type": "Point",
        "coordinates": [
          106.6728194,
          10.7710531
        ]
      },
      "id": "node/6791942986"
    },
    {
      "type": "Feature",
      "properties": {
        "@id": "node/6899808101",
        "amenity": "toilets"
      },
      "geometry": {
        "type": "Point",
        "coordinates": [
          107.2661486,
          10.3944992
        ]
      },
      "id": "node/6899808101"
    },
    {
      "type": "Feature",
      "properties": {
        "@id": "node/7068635866",
        "amenity": "toilets"
      },
      "geometry": {
        "type": "Point",
        "coordinates": [
          107.0741303,
          10.3465162
        ]
      },
      "id": "node/7068635866"
    },
    {
      "type": "Feature",
      "properties": {
        "@id": "node/7081572272",
        "access": "yes",
        "amenity": "toilets",
        "fee": "no",
        "level": "0"
      },
      "geometry": {
        "type": "Point",
        "coordinates": [
          106.66212,
          10.8147064
        ]
      },
      "id": "node/7081572272"
    },
    {
      "type": "Feature",
      "properties": {
        "@id": "node/7092269097",
        "amenity": "toilets"
      },
      "geometry": {
        "type": "Point",
        "coordinates": [
          107.0828773,
          10.3538894
        ]
      },
      "id": "node/7092269097"
    },
    {
      "type": "Feature",
      "properties": {
        "@id": "node/7370466205",
        "amenity": "toilets"
      },
      "geometry": {
        "type": "Point",
        "coordinates": [
          107.0843773,
          10.3241499
        ]
      },
      "id": "node/7370466205"
    },
    {
      "type": "Feature",
      "properties": {
        "@id": "node/7388134167",
        "amenity": "toilets"
      },
      "geometry": {
        "type": "Point",
        "coordinates": [
          107.0881035,
          10.32925
        ]
      },
      "id": "node/7388134167"
    },
    {
      "type": "Feature",
      "properties": {
        "@id": "node/7392769819",
        "amenity": "toilets"
      },
      "geometry": {
        "type": "Point",
        "coordinates": [
          107.087097,
          10.3504363
        ]
      },
      "id": "node/7392769819"
    },
    {
      "type": "Feature",
      "properties": {
        "@id": "node/7414632405",
        "amenity": "toilets"
      },
      "geometry": {
        "type": "Point",
        "coordinates": [
          107.1807591,
          10.402754
        ]
      },
      "id": "node/7414632405"
    },
    {
      "type": "Feature",
      "properties": {
        "@id": "node/7619639695",
        "access": "yes",
        "amenity": "toilets",
        "wheelchair": "yes"
      },
      "geometry": {
        "type": "Point",
        "coordinates": [
          106.6758952,
          10.8148331
        ]
      },
      "id": "node/7619639695"
    },
    {
      "type": "Feature",
      "properties": {
        "@id": "node/7619639777",
        "amenity": "toilets",
        "wheelchair": "yes"
      },
      "geometry": {
        "type": "Point",
        "coordinates": [
          106.6773113,
          10.813644
        ]
      },
      "id": "node/7619639777"
    },
    {
      "type": "Feature",
      "properties": {
        "@id": "node/7621531825",
        "access": "yes",
        "amenity": "toilets",
        "wheelchair": "limited"
      },
      "geometry": {
        "type": "Point",
        "coordinates": [
          106.6742819,
          10.8124637
        ]
      },
      "id": "node/7621531825"
    },
    {
      "type": "Feature",
      "properties": {
        "@id": "node/7782811270",
        "amenity": "toilets"
      },
      "geometry": {
        "type": "Point",
        "coordinates": [
          107.1202726,
          10.3689935
        ]
      },
      "id": "node/7782811270"
    },
    {
      "type": "Feature",
      "properties": {
        "@id": "node/10041056009",
        "access": "yes",
        "amenity": "toilets"
      },
      "geometry": {
        "type": "Point",
        "coordinates": [
          106.6931497,
          10.7737468
        ]
      },
      "id": "node/10041056009"
    },
    {
      "type": "Feature",
      "properties": {
        "@id": "node/10120868717",
        "amenity": "toilets",
        "opening_hours": "24/7"
      },
      "geometry": {
        "type": "Point",
        "coordinates": [
          106.689695,
          10.768644
        ]
      },
      "id": "node/10120868717"
    },
    {
      "type": "Feature",
      "properties": {
        "@id": "node/10186490647",
        "door": "hinged",
        "entrance": "yes",
        "indoor": "door",
        "level": "5;6"
      },
      "geometry": {
        "type": "Point",
        "coordinates": [
          106.7644023,
          10.8420996
        ]
      },
      "id": "node/10186490647"
    },
    {
      "type": "Feature",
      "properties": {
        "@id": "node/10186490653",
        "door": "hinged",
        "entrance": "yes",
        "indoor": "door",
        "level": "5;6"
      },
      "geometry": {
        "type": "Point",
        "coordinates": [
          106.7643755,
          10.8420535
        ]
      },
      "id": "node/10186490653"
    },
    {
      "type": "Feature",
      "properties": {
        "@id": "node/10186490688",
        "door": "hinged",
        "entrance": "yes",
        "indoor": "door",
        "level": "0;2;3;4"
      },
      "geometry": {
        "type": "Point",
        "coordinates": [
          106.764402,
          10.8420991
        ]
      },
      "id": "node/10186490688"
    },
    {
      "type": "Feature",
      "properties": {
        "@id": "node/10186490689",
        "door": "hinged",
        "entrance": "yes",
        "indoor": "door",
        "level": "0;2;3;4;5;6"
      },
      "geometry": {
        "type": "Point",
        "coordinates": [
          106.7644134,
          10.842132
        ]
      },
      "id": "node/10186490689"
    },
    {
      "type": "Feature",
      "properties": {
        "@id": "node/10733449233",
        "amenity": "toilets",
        "unisex": "yes",
        "wheelchair": "limited"
      },
      "geometry": {
        "type": "Point",
        "coordinates": [
          106.6457326,
          10.8744053
        ]
      },
      "id": "node/10733449233"
    },
    {
      "type": "Feature",
      "properties": {
        "@id": "node/10794829527",
        "access": "yes",
        "amenity": "toilets"
      },
      "geometry": {
        "type": "Point",
        "coordinates": [
          106.7179408,
          10.7283611
        ]
      },
      "id": "node/10794829527"
    },
    {
      "type": "Feature",
      "properties": {
        "@id": "node/11118366336",
        "amenity": "toilets"
      },
      "geometry": {
        "type": "Point",
        "coordinates": [
          106.8894452,
          10.4061119
        ]
      },
      "id": "node/11118366336"
    },
    {
      "type": "Feature",
      "properties": {
        "@id": "node/11118377515",
        "amenity": "toilets"
      },
      "geometry": {
        "type": "Point",
        "coordinates": [
          106.8818943,
          10.4148378
        ]
      },
      "id": "node/11118377515"
    },
    {
      "type": "Feature",
      "properties": {
        "@id": "node/11359737097",
        "amenity": "toilets",
        "unisex": "yes"
      },
      "geometry": {
        "type": "Point",
        "coordinates": [
          106.7252514,
          10.7729204
        ]
      },
      "id": "node/11359737097"
    },
    {
      "type": "Feature",
      "properties": {
        "@id": "node/11359737138",
        "access": "yes",
        "amenity": "toilets",
        "unisex": "yes"
      },
      "geometry": {
        "type": "Point",
        "coordinates": [
          106.7247813,
          10.771209
        ]
      },
      "id": "node/11359737138"
    },
    {
      "type": "Feature",
      "properties": {
        "@id": "node/11359737139",
        "access": "yes",
        "amenity": "toilets",
        "unisex": "yes"
      },
      "geometry": {
        "type": "Point",
        "coordinates": [
          106.7249433,
          10.7708696
        ]
      },
      "id": "node/11359737139"
    },
    {
      "type": "Feature",
      "properties": {
        "@id": "node/11359737161",
        "access": "yes",
        "amenity": "toilets",
        "unisex": "yes"
      },
      "geometry": {
        "type": "Point",
        "coordinates": [
          106.7256203,
          10.7712206
        ]
      },
      "id": "node/11359737161"
    },
    {
      "type": "Feature",
      "properties": {
        "@id": "node/11359737162",
        "access": "yes",
        "amenity": "toilets",
        "fee": "no",
        "unisex": "yes"
      },
      "geometry": {
        "type": "Point",
        "coordinates": [
          106.7254443,
          10.7715568
        ]
      },
      "id": "node/11359737162"
    },
    {
      "type": "Feature",
      "properties": {
        "@id": "node/11359737163",
        "access": "yes",
        "amenity": "toilets",
        "unisex": "yes"
      },
      "geometry": {
        "type": "Point",
        "coordinates": [
          106.7264153,
          10.7698514
        ]
      },
      "id": "node/11359737163"
    },
    {
      "type": "Feature",
      "properties": {
        "@id": "node/11359737164",
        "access": "yes",
        "amenity": "toilets",
        "unisex": "yes"
      },
      "geometry": {
        "type": "Point",
        "coordinates": [
          106.7262404,
          10.770077
        ]
      },
      "id": "node/11359737164"
    },
    {
      "type": "Feature",
      "properties": {
        "@id": "node/11414666680",
        "amenity": "toilets"
      },
      "geometry": {
        "type": "Point",
        "coordinates": [
          107.0861715,
          10.3245242
        ]
      },
      "id": "node/11414666680"
    },
    {
      "type": "Feature",
      "properties": {
        "@id": "node/11497270069",
        "amenity": "toilets"
      },
      "geometry": {
        "type": "Point",
        "coordinates": [
          107.0934849,
          10.3491598
        ]
      },
      "id": "node/11497270069"
    },
    {
      "type": "Feature",
      "properties": {
        "@id": "node/11510593723",
        "amenity": "toilets"
      },
      "geometry": {
        "type": "Point",
        "coordinates": [
          106.7072009,
          10.7739518
        ]
      },
      "id": "node/11510593723"
    },
    {
      "type": "Feature",
      "properties": {
        "@id": "node/11759508490",
        "amenity": "toilets"
      },
      "geometry": {
        "type": "Point",
        "coordinates": [
          106.7065099,
          10.7896265
        ]
      },
      "id": "node/11759508490"
    },
    {
      "type": "Feature",
      "properties": {
        "@id": "node/11914753075",
        "access": "yes",
        "addr:floor": "3",
        "amenity": "toilets",
        "check_date": "2024-05-18",
        "toilets:disposal": "flush",
        "wheelchair": "yes"
      },
      "geometry": {
        "type": "Point",
        "coordinates": [
          106.6636747,
          10.8169298
        ]
      },
      "id": "node/11914753075"
    },
    {
      "type": "Feature",
      "properties": {
        "@id": "node/11914881714",
        "access": "yes",
        "amenity": "toilets",
        "check_date": "2024-05-18",
        "toilets:disposal": "flush",
        "wheelchair": "yes"
      },
      "geometry": {
        "type": "Point",
        "coordinates": [
          106.6661748,
          10.8179769
        ]
      },
      "id": "node/11914881714"
    },
    {
      "type": "Feature",
      "properties": {
        "@id": "node/11917566569",
        "amenity": "toilets",
        "opening_hours": "24/7"
      },
      "geometry": {
        "type": "Point",
        "coordinates": [
          106.8370582,
          10.8412545
        ]
      },
      "id": "node/11917566569"
    },
    {
      "type": "Feature",
      "properties": {
        "@id": "node/11917578469",
        "amenity": "toilets",
        "opening_hours": "24/7"
      },
      "geometry": {
        "type": "Point",
        "coordinates": [
          106.8379839,
          10.8421901
        ]
      },
      "id": "node/11917578469"
    },
    {
      "type": "Feature",
      "properties": {
        "@id": "node/11917588169",
        "amenity": "toilets",
        "opening_hours": "24/7"
      },
      "geometry": {
        "type": "Point",
        "coordinates": [
          106.8367122,
          10.8402573
        ]
      },
      "id": "node/11917588169"
    },
    {
      "type": "Feature",
      "properties": {
        "@id": "node/12094600164",
        "amenity": "toilets"
      },
      "geometry": {
        "type": "Point",
        "coordinates": [
          107.3972902,
          10.6610747
        ]
      },
      "id": "node/12094600164"
    },
    {
      "type": "Feature",
      "properties": {
        "@id": "node/12168164405",
        "amenity": "toilets",
        "portable": "yes"
      },
      "geometry": {
        "type": "Point",
        "coordinates": [
          106.7755263,
          10.7982436
        ]
      },
      "id": "node/12168164405"
    },
    {
      "type": "Feature",
      "properties": {
        "@id": "node/12325357596",
        "access": "yes",
        "amenity": "toilets",
        "fee": "no",
        "wheelchair": "yes"
      },
      "geometry": {
        "type": "Point",
        "coordinates": [
          106.6952622,
          10.7696656
        ]
      },
      "id": "node/12325357596"
    },
    {
      "type": "Feature",
      "properties": {
        "@id": "node/12344412552",
        "amenity": "toilets"
      },
      "geometry": {
        "type": "Point",
        "coordinates": [
          106.6924805,
          10.7816856
        ]
      },
      "id": "node/12344412552"
    },
    {
      "type": "Feature",
      "properties": {
        "@id": "node/12344441434",
        "amenity": "toilets"
      },
      "geometry": {
        "type": "Point",
        "coordinates": [
          106.4619683,
          11.1409414
        ]
      },
      "id": "node/12344441434"
    },
    {
      "type": "Feature",
      "properties": {
        "@id": "node/12348468585",
        "amenity": "toilets",
        "fee": "no"
      },
      "geometry": {
        "type": "Point",
        "coordinates": [
          106.7514633,
          10.777138
        ]
      },
      "id": "node/12348468585"
    },
    {
      "type": "Feature",
      "properties": {
        "@id": "node/12450959434",
        "amenity": "toilets",
        "fee": "no"
      },
      "geometry": {
        "type": "Point",
        "coordinates": [
          106.700422,
          10.7815981
        ]
      },
      "id": "node/12450959434"
    },
    {
      "type": "Feature",
      "properties": {
        "@id": "node/12543026766",
        "amenity": "toilets",
        "fee": "yes",
        "wheelchair": "yes"
      },
      "geometry": {
        "type": "Point",
        "coordinates": [
          106.6018373,
          8.6780645
        ]
      },
      "id": "node/12543026766"
    },
    {
      "type": "Feature",
      "properties": {
        "@id": "node/12548032768",
        "amenity": "toilets",
        "fee": "no",
        "wheelchair": "no"
      },
      "geometry": {
        "type": "Point",
        "coordinates": [
          106.6228346,
          8.7327696
        ]
      },
      "id": "node/12548032768"
    },
    {
      "type": "Feature",
      "properties": {
        "@id": "node/12550925652",
        "amenity": "toilets",
        "fee": "no",
        "wheelchair": "no"
      },
      "geometry": {
        "type": "Point",
        "coordinates": [
          106.6136518,
          8.6863771
        ]
      },
      "id": "node/12550925652"
    },
    {
      "type": "Feature",
      "properties": {
        "@id": "node/12561360038",
        "amenity": "toilets",
        "fee": "yes",
        "wheelchair": "no"
      },
      "geometry": {
        "type": "Point",
        "coordinates": [
          106.5979579,
          8.7233922
        ]
      },
      "id": "node/12561360038"
    },
    {
      "type": "Feature",
      "properties": {
        "@id": "node/12816068735",
        "access": "yes",
        "amenity": "toilets",
        "level": "-1"
      },
      "geometry": {
        "type": "Point",
        "coordinates": [
          106.7402102,
          10.8024032
        ]
      },
      "id": "node/12816068735"
    },
    {
      "type": "Feature",
      "properties": {
        "@id": "node/12922557605",
        "access": "yes",
        "amenity": "toilets",
        "level": "3"
      },
      "geometry": {
        "type": "Point",
        "coordinates": [
          106.6797004,
          10.7412052
        ]
      },
      "id": "node/12922557605"
    },
    {
      "type": "Feature",
      "properties": {
        "@id": "node/13132951314",
        "access": "yes",
        "amenity": "toilets",
        "level": "2"
      },
      "geometry": {
        "type": "Point",
        "coordinates": [
          106.6129793,
          10.7435727
        ]
      },
      "id": "node/13132951314"
    }
  ]
}